{"type":"FeatureCollection","features":[{"type":"Feature","properties":{"id":"YE1704","gov":"YE17","ar":"عبس","en":"Abs"},"geometry":{"type":"Point","coordinates":[43.1055,16.0185]}},{"type":"Feature","properties":{"id":"YE3006","gov":"YE30","ar":"الضالع","en":"Ad Dali'"},"geometry":{"type":"Point","coordinates":[44.763,13.7136]}},{"type":"Feature","properties":{"id":"YE1914","gov":"YE19","ar":"الديس","en":"Ad Dis"},"geometry":{"type":"Point","coordinates":[49.9489,15.1047]}},{"type":"Feature","properties":{"id":"YE1809","gov":"YE18","ar":"الضحى","en":"Ad Dohi"},"geometry":{"type":"Point","coordinates":[43.1432,15.2213]}},{"type":"Feature","properties":{"id":"YE1922","gov":"YE19","ar":"الضليعه","en":"Ad Dulay'ah"},"geometry":{"type":"Point","coordinates":[47.9226,15.0134]}},{"type":"Feature","properties":{"id":"YE1814","gov":"YE18","ar":"الدريهمي","en":"Ad Durayhimi"},"geometry":{"type":"Point","coordinates":[43.1182,14.5998]}},{"type":"Feature","properties":{"id":"YE2207","gov":"YE22","ar":"الظاهر","en":"Adh Dhahir"},"geometry":{"type":"Point","coordinates":[43.2594,16.7394]}},{"type":"Feature","properties":{"id":"YE1119","gov":"YE11","ar":"الظهار","en":"Adh Dhihar"},"geometry":{"type":"Point","coordinates":[44.1611,13.9763]}},{"type":"Feature","properties":{"id":"YE1714","gov":"YE17","ar":"افلح اليمن","en":"Aflah Al Yaman"},"geometry":{"type":"Point","coordinates":[43.4169,15.9795]}},{"type":"Feature","properties":{"id":"YE1710","gov":"YE17","ar":"افلح الشام","en":"Aflah Ash Sham"},"geometry":{"type":"Point","coordinates":[43.4194,16.0534]}},{"type":"Feature","properties":{"id":"YE1209","gov":"YE12","ar":"احور","en":"Ahwar"},"geometry":{"type":"Point","coordinates":[46.7834,13.6831]}},{"type":"Feature","properties":{"id":"YE2611","gov":"YE26","ar":"العبديه","en":"Al Abdiyah"},"geometry":{"type":"Point","coordinates":[45.3977,14.7167]}},{"type":"Feature","properties":{"id":"YE1906","gov":"YE19","ar":"العبر","en":"Al Abr"},"geometry":{"type":"Point","coordinates":[47.3172,15.923]}},{"type":"Feature","properties":{"id":"YE1416","gov":"YE14","ar":"العرش","en":"Al Arsh"},"geometry":{"type":"Point","coordinates":[44.7643,14.359]}},{"type":"Feature","properties":{"id":"YE2903","gov":"YE29","ar":"العشه","en":"Al Ashah"},"geometry":{"type":"Point","coordinates":[43.8387,16.3349]}},{"type":"Feature","properties":{"id":"YE3008","gov":"YE30","ar":"الازارق","en":"Al Azariq"},"geometry":{"type":"Point","coordinates":[44.6304,13.6481]}},{"type":"Feature","properties":{"id":"YE1410","gov":"YE14","ar":"البيضاء","en":"Al Bayda"},"geometry":{"type":"Point","coordinates":[45.5706,14.0646]}},{"type":"Feature","properties":{"id":"YE1409","gov":"YE14","ar":"مدينة البيضاء","en":"Al Bayda City"},"geometry":{"type":"Point","coordinates":[45.573,13.9833]}},{"type":"Feature","properties":{"id":"YE2404","gov":"YE24","ar":"البريقه","en":"Al Burayqah"},"geometry":{"type":"Point","coordinates":[44.771,12.7965]}},{"type":"Feature","properties":{"id":"YE2804","gov":"YE28","ar":"الغيظه","en":"Al Ghaydhah"},"geometry":{"type":"Point","coordinates":[52.0091,16.2638]}},{"type":"Feature","properties":{"id":"YE1608","gov":"YE16","ar":"الغيل","en":"Al Ghayl"},"geometry":{"type":"Point","coordinates":[44.6988,16.0921]}},{"type":"Feature","properties":{"id":"YE2501","gov":"YE25","ar":"الحد","en":"Al Had"},"geometry":{"type":"Point","coordinates":[45.2543,13.9504]}},{"type":"Feature","properties":{"id":"YE2001","gov":"YE20","ar":"الحداء","en":"Al Hada"},"geometry":{"type":"Point","coordinates":[44.5699,14.8094]}},{"type":"Feature","properties":{"id":"YE1823","gov":"YE18","ar":"الحالي","en":"Al Hali"},"geometry":{"type":"Point","coordinates":[42.9931,14.7882]}},{"type":"Feature","properties":{"id":"YE3005","gov":"YE30","ar":"الحصين","en":"Al Hasayn"},"geometry":{"type":"Point","coordinates":[44.8082,13.7906]}},{"type":"Feature","properties":{"id":"YE2213","gov":"YE22","ar":"الحشوه","en":"Al Hashwah"},"geometry":{"type":"Point","coordinates":[44.2595,16.9164]}},{"type":"Feature","properties":{"id":"YE1821","gov":"YE18","ar":"الحوك","en":"Al Hawak"},"geometry":{"type":"Point","coordinates":[42.9691,14.7512]}},{"type":"Feature","properties":{"id":"YE2514","gov":"YE25","ar":"الحوطه","en":"Al Hawtah"},"geometry":{"type":"Point","coordinates":[44.878,13.0607]}},{"type":"Feature","properties":{"id":"YE2308","gov":"YE23","ar":"الحيمة الداخليه","en":"Al Haymah Ad Dakhiliyah"},"geometry":{"type":"Point","coordinates":[43.8336,15.2758]}},{"type":"Feature","properties":{"id":"YE2309","gov":"YE23","ar":"الحيمة الخارجيه","en":"Al Haymah Al Kharijiyah"},"geometry":{"type":"Point","coordinates":[43.8869,15.0296]}},{"type":"Feature","properties":{"id":"YE1605","gov":"YE16","ar":"الحزم","en":"Al Hazm"},"geometry":{"type":"Point","coordinates":[45.0307,16.0783]}},{"type":"Feature","properties":{"id":"YE2315","gov":"YE23","ar":"الحصن","en":"Al Hissn"},"geometry":{"type":"Point","coordinates":[44.5035,15.0205]}},{"type":"Feature","properties":{"id":"YE1811","gov":"YE18","ar":"الحجيله","en":"Al Hujjaylah"},"geometry":{"type":"Point","coordinates":[43.5884,14.9877]}},{"type":"Feature","properties":{"id":"YE1602","gov":"YE16","ar":"الحميدات","en":"Al Humaydat"},"geometry":{"type":"Point","coordinates":[44.3975,16.4674]}},{"type":"Feature","properties":{"id":"YE3009","gov":"YE30","ar":"الحشاء","en":"Al Husha"},"geometry":{"type":"Point","coordinates":[44.48,13.7525]}},{"type":"Feature","properties":{"id":"YE3106","gov":"YE31","ar":"الجعفريه","en":"Al Ja'fariyyah"},"geometry":{"type":"Point","coordinates":[43.5707,14.5146]}},{"type":"Feature","properties":{"id":"YE3103","gov":"YE31","ar":"الجبين","en":"Al Jabin"},"geometry":{"type":"Point","coordinates":[43.6169,14.691]}},{"type":"Feature","properties":{"id":"YE1708","gov":"YE17","ar":"الجميمه","en":"Al Jamimah"},"geometry":{"type":"Point","coordinates":[43.5559,16.0307]}},{"type":"Feature","properties":{"id":"YE1825","gov":"YE18","ar":"الجراحي","en":"Al Jarrahi"},"geometry":{"type":"Point","coordinates":[43.3784,14.103]}},{"type":"Feature","properties":{"id":"YE2607","gov":"YE26","ar":"الجوبه","en":"Al Jubah"},"geometry":{"type":"Point","coordinates":[45.283,15.1401]}},{"type":"Feature","properties":{"id":"YE2704","gov":"YE27","ar":"الخبت","en":"Al Khabt"},"geometry":{"type":"Point","coordinates":[43.363,15.4866]}},{"type":"Feature","properties":{"id":"YE1609","gov":"YE16","ar":"الخلق","en":"Al Khalaq"},"geometry":{"type":"Point","coordinates":[44.7992,16.0673]}},{"type":"Feature","properties":{"id":"YE1820","gov":"YE18","ar":"الخوخه","en":"Al Khukhah"},"geometry":{"type":"Point","coordinates":[43.3552,13.8125]}},{"type":"Feature","properties":{"id":"YE1521","gov":"YE15","ar":"المعافر","en":"Al Ma'afer"},"geometry":{"type":"Point","coordinates":[43.9927,13.3756]}},{"type":"Feature","properties":{"id":"YE2906","gov":"YE29","ar":"المدان","en":"Al Madan"},"geometry":{"type":"Point","coordinates":[43.6367,16.2321]}},{"type":"Feature","properties":{"id":"YE2513","gov":"YE25","ar":"المضاربة و العاره","en":"Al Madaribah Wa Al Aarah"},"geometry":{"type":"Point","coordinates":[43.9701,12.8694]}},{"type":"Feature","properties":{"id":"YE2503","gov":"YE25","ar":"المفلحي","en":"Al Maflahi"},"geometry":{"type":"Point","coordinates":[45.1394,13.7837]}},{"type":"Feature","properties":{"id":"YE1717","gov":"YE17","ar":"المغربه","en":"Al Maghrabah"},"geometry":{"type":"Point","coordinates":[43.6176,15.902]}},{"type":"Feature","properties":{"id":"YE1715","gov":"YE17","ar":"المحابشه","en":"Al Mahabishah"},"geometry":{"type":"Point","coordinates":[43.4669,15.9241]}},{"type":"Feature","properties":{"id":"YE1201","gov":"YE12","ar":"المحفد","en":"Al Mahfad"},"geometry":{"type":"Point","coordinates":[46.7924,14.0101]}},{"type":"Feature","properties":{"id":"YE2709","gov":"YE27","ar":"المحويت","en":"Al Mahwit"},"geometry":{"type":"Point","coordinates":[43.5612,15.4109]}},{"type":"Feature","properties":{"id":"YE2708","gov":"YE27","ar":"مدينة المحويت","en":"Al Mahwit City"},"geometry":{"type":"Point","coordinates":[43.5461,15.4625]}},{"type":"Feature","properties":{"id":"YE1505","gov":"YE15","ar":"المخاء","en":"Al Makha"},"geometry":{"type":"Point","coordinates":[43.3696,13.5218]}},{"type":"Feature","properties":{"id":"YE1107","gov":"YE11","ar":"المخادر","en":"Al Makhadir"},"geometry":{"type":"Point","coordinates":[44.2056,14.1407]}},{"type":"Feature","properties":{"id":"YE2508","gov":"YE25","ar":"الملاح","en":"Al Malah"},"geometry":{"type":"Point","coordinates":[44.9406,13.3791]}},{"type":"Feature","properties":{"id":"YE1420","gov":"YE14","ar":"الملاجم","en":"Al Malajim"},"geometry":{"type":"Point","coordinates":[45.388,14.3279]}},{"type":"Feature","properties":{"id":"YE2012","gov":"YE20","ar":"المنار","en":"Al Manar"},"geometry":{"type":"Point","coordinates":[44.1585,14.6528]}},{"type":"Feature","properties":{"id":"YE2403","gov":"YE24","ar":"المنصوره","en":"Al Mansurah"},"geometry":{"type":"Point","coordinates":[44.9703,12.8412]}},{"type":"Feature","properties":{"id":"YE1816","gov":"YE18","ar":"المنصوريه","en":"Al Mansuriyah"},"geometry":{"type":"Point","coordinates":[43.3754,14.6842]}},{"type":"Feature","properties":{"id":"YE2512","gov":"YE25","ar":"المقاطره","en":"Al Maqatirah"},"geometry":{"type":"Point","coordinates":[44.1716,13.1295]}},{"type":"Feature","properties":{"id":"YE1813","gov":"YE18","ar":"المراوعه","en":"Al Marawi'ah"},"geometry":{"type":"Point","coordinates":[43.1625,14.8426]}},{"type":"Feature","properties":{"id":"YE1118","gov":"YE11","ar":"المشنه","en":"Al Mashannah"},"geometry":{"type":"Point","coordinates":[44.1532,13.9535]}},{"type":"Feature","properties":{"id":"YE2806","gov":"YE28","ar":"المسيله","en":"Al Masilah"},"geometry":{"type":"Point","coordinates":[50.6379,15.551]}},{"type":"Feature","properties":{"id":"YE1607","gov":"YE16","ar":"المصلوب","en":"Al Maslub"},"geometry":{"type":"Point","coordinates":[44.5554,16.0942]}},{"type":"Feature","properties":{"id":"YE1603","gov":"YE16","ar":"المطمه","en":"Al Matammah"},"geometry":{"type":"Point","coordinates":[44.3928,16.2001]}},{"type":"Feature","properties":{"id":"YE1522","gov":"YE15","ar":"المواسط","en":"Al Mawasit"},"geometry":{"type":"Point","coordinates":[44.0915,13.3042]}},{"type":"Feature","properties":{"id":"YE1716","gov":"YE17","ar":"المفتاح","en":"Al Miftah"},"geometry":{"type":"Point","coordinates":[43.5158,15.9617]}},{"type":"Feature","properties":{"id":"YE1808","gov":"YE18","ar":"المغلاف","en":"Al Mighlaf"},"geometry":{"type":"Point","coordinates":[43.1876,15.3099]}},{"type":"Feature","properties":{"id":"YE1822","gov":"YE18","ar":"الميناء","en":"Al Mina"},"geometry":{"type":"Point","coordinates":[42.9184,14.9445]}},{"type":"Feature","properties":{"id":"YE1511","gov":"YE15","ar":"المسراخ","en":"Al Misrakh"},"geometry":{"type":"Point","coordinates":[44.0898,13.5144]}},{"type":"Feature","properties":{"id":"YE2406","gov":"YE24","ar":"المعلا","en":"Al Mu'alla"},"geometry":{"type":"Point","coordinates":[45.0129,12.7913]}},{"type":"Feature","properties":{"id":"YE1517","gov":"YE15","ar":"المظفر","en":"Al Mudhaffar"},"geometry":{"type":"Point","coordinates":[43.9808,13.5815]}},{"type":"Feature","properties":{"id":"YE1926","gov":"YE19","ar":"المكلا","en":"Al Mukalla"},"geometry":{"type":"Point","coordinates":[48.9052,14.721]}},{"type":"Feature","properties":{"id":"YE1927","gov":"YE19","ar":"مدينة المكلا","en":"Al Mukalla City"},"geometry":{"type":"Point","coordinates":[49.0668,14.5333]}},{"type":"Feature","properties":{"id":"YE1805","gov":"YE18","ar":"المنيره","en":"Al Munirah"},"geometry":{"type":"Point","coordinates":[42.8842,15.3535]}},{"type":"Feature","properties":{"id":"YE2509","gov":"YE25","ar":"المسيمير","en":"Al Musaymir"},"geometry":{"type":"Point","coordinates":[44.6438,13.4314]}},{"type":"Feature","properties":{"id":"YE1606","gov":"YE16","ar":"المتون","en":"Al Mutun"},"geometry":{"type":"Point","coordinates":[44.6161,16.313]}},{"type":"Feature","properties":{"id":"YE1111","gov":"YE11","ar":"العدين","en":"Al Odayn"},"geometry":{"type":"Point","coordinates":[44.0231,13.9942]}},{"type":"Feature","properties":{"id":"YE1903","gov":"YE19","ar":"القف","en":"Al Qaff"},"geometry":{"type":"Point","coordinates":[49.1212,17.4316]}},{"type":"Feature","properties":{"id":"YE1101","gov":"YE11","ar":"القفر","en":"Al Qafr"},"geometry":{"type":"Point","coordinates":[44.0403,14.3249]}},{"type":"Feature","properties":{"id":"YE1518","gov":"YE15","ar":"القاهره","en":"Al Qahirah"},"geometry":{"type":"Point","coordinates":[44.0139,13.5863]}},{"type":"Feature","properties":{"id":"YE1806","gov":"YE18","ar":"القناوص","en":"Al Qanawis"},"geometry":{"type":"Point","coordinates":[43.1341,15.4603]}},{"type":"Feature","properties":{"id":"YE1907","gov":"YE19","ar":"القطن","en":"Al Qatn"},"geometry":{"type":"Point","coordinates":[48.3329,15.9118]}},{"type":"Feature","properties":{"id":"YE2510","gov":"YE25","ar":"القبيطه","en":"Al Qubaytah"},"geometry":{"type":"Point","coordinates":[44.4905,13.329]}},{"type":"Feature","properties":{"id":"YE1414","gov":"YE14","ar":"القريشيه","en":"Al Quraishyah"},"geometry":{"type":"Point","coordinates":[44.8993,14.6047]}},{"type":"Feature","properties":{"id":"YE1208","gov":"YE12","ar":"الوضيع","en":"Al Wadi'"},"geometry":{"type":"Point","coordinates":[46.067,13.6858]}},{"type":"Feature","properties":{"id":"YE1515","gov":"YE15","ar":"الوازعيه","en":"Al Wazi'yah"},"geometry":{"type":"Point","coordinates":[43.7632,13.1814]}},{"type":"Feature","properties":{"id":"YE1306","gov":"YE13","ar":"الوحده","en":"Al Wehdah"},"geometry":{"type":"Point","coordinates":[44.1877,15.3349]}},{"type":"Feature","properties":{"id":"YE1802","gov":"YE18","ar":"اللحيه","en":"Alluhayah"},"geometry":{"type":"Point","coordinates":[42.8862,15.6408]}},{"type":"Feature","properties":{"id":"YE1921","gov":"YE19","ar":"عمد","en":"Amd"},"geometry":{"type":"Point","coordinates":[47.926,15.3404]}},{"type":"Feature","properties":{"id":"YE2915","gov":"YE29","ar":"عمران","en":"Amran"},"geometry":{"type":"Point","coordinates":[43.7579,15.6928]}},{"type":"Feature","properties":{"id":"YE1104","gov":"YE11","ar":"النادره","en":"An Nadirah"},"geometry":{"type":"Point","coordinates":[44.4837,14.0616]}},{"type":"Feature","properties":{"id":"YE2010","gov":"YE20","ar":"عنس","en":"Ans"},"geometry":{"type":"Point","coordinates":[44.3794,14.438]}},{"type":"Feature","properties":{"id":"YE1103","gov":"YE11","ar":"الرضمه","en":"Ar Radmah"},"geometry":{"type":"Point","coordinates":[44.5529,14.2104]}},{"type":"Feature","properties":{"id":"YE2115","gov":"YE21","ar":"الروضه","en":"Ar Rawdah"},"geometry":{"type":"Point","coordinates":[47.2333,14.5002]}},{"type":"Feature","properties":{"id":"YE1913","gov":"YE19","ar":"الريدة وقصيعر","en":"Ar Raydah wa Qussay'ar"},"geometry":{"type":"Point","coordinates":[50.3995,15.1593]}},{"type":"Feature","properties":{"id":"YE2703","gov":"YE27","ar":"الرجم","en":"Ar Rujum"},"geometry":{"type":"Point","coordinates":[43.6772,15.4085]}},{"type":"Feature","properties":{"id":"YE1418","gov":"YE14","ar":"الرياشيه","en":"Ar Ryashyyah"},"geometry":{"type":"Point","coordinates":[44.7988,14.241]}},{"type":"Feature","properties":{"id":"YE2302","gov":"YE23","ar":"ارحب","en":"Arhab"},"geometry":{"type":"Point","coordinates":[44.2891,15.804]}},{"type":"Feature","properties":{"id":"YE2104","gov":"YE21","ar":"عرماء","en":"Arma'a"},"geometry":{"type":"Point","coordinates":[47.0269,15.3874]}},{"type":"Feature","properties":{"id":"YE2112","gov":"YE21","ar":"الصعيد","en":"As Sa'id"},"geometry":{"type":"Point","coordinates":[46.8582,14.2799]}},{"type":"Feature","properties":{"id":"YE1305","gov":"YE13","ar":"السبعين","en":"As Sab'in"},"geometry":{"type":"Point","coordinates":[44.2028,15.306]}},{"type":"Feature","properties":{"id":"YE1114","gov":"YE11","ar":"السبره","en":"As Sabrah"},"geometry":{"type":"Point","coordinates":[44.3017,13.8423]}},{"type":"Feature","properties":{"id":"YE1106","gov":"YE11","ar":"السده","en":"As Saddah"},"geometry":{"type":"Point","coordinates":[44.4195,14.1668]}},{"type":"Feature","properties":{"id":"YE1304","gov":"YE13","ar":"الصافيه","en":"As Safiyah"},"geometry":{"type":"Point","coordinates":[44.2463,15.343]}},{"type":"Feature","properties":{"id":"YE2212","gov":"YE22","ar":"الصفراء","en":"As Safra"},"geometry":{"type":"Point","coordinates":[43.8285,16.9941]}},{"type":"Feature","properties":{"id":"YE1115","gov":"YE11","ar":"السياني","en":"As Saiyani"},"geometry":{"type":"Point","coordinates":[44.2149,13.8228]}},{"type":"Feature","properties":{"id":"YE3102","gov":"YE31","ar":"السلفيه","en":"As Salafiyyah"},"geometry":{"type":"Point","coordinates":[43.8173,14.6954]}},{"type":"Feature","properties":{"id":"YE1804","gov":"YE18","ar":"الصليف","en":"As Salif"},"geometry":{"type":"Point","coordinates":[42.7119,15.2727]}},{"type":"Feature","properties":{"id":"YE1411","gov":"YE14","ar":"السواديه","en":"As Sawadiyah"},"geometry":{"type":"Point","coordinates":[45.3894,14.5254]}},{"type":"Feature","properties":{"id":"YE2914","gov":"YE29","ar":"السود","en":"As Sawd"},"geometry":{"type":"Point","coordinates":[43.7668,15.8241]}},{"type":"Feature","properties":{"id":"YE1912","gov":"YE19","ar":"السوم","en":"As Sawm"},"geometry":{"type":"Point","coordinates":[49.7531,16.0232]}},{"type":"Feature","properties":{"id":"YE1404","gov":"YE14","ar":"الصومعه","en":"As Sawma'ah"},"geometry":{"type":"Point","coordinates":[45.7542,14.1771]}},{"type":"Feature","properties":{"id":"YE1513","gov":"YE15","ar":"الصلو","en":"As Silw"},"geometry":{"type":"Point","coordinates":[44.2025,13.3469]}},{"type":"Feature","properties":{"id":"YE2913","gov":"YE29","ar":"السوده","en":"As Sudah"},"geometry":{"type":"Point","coordinates":[43.7785,15.9679]}},{"type":"Feature","properties":{"id":"YE1815","gov":"YE18","ar":"السخنه","en":"As Sukhnah"},"geometry":{"type":"Point","coordinates":[43.3391,14.7455]}},{"type":"Feature","properties":{"id":"YE1105","gov":"YE11","ar":"الشعر","en":"Ash Sha'ir"},"geometry":{"type":"Point","coordinates":[44.3679,14.0334]}},{"type":"Feature","properties":{"id":"YE1725","gov":"YE17","ar":"الشغادره","en":"Ash Shaghadirah"},"geometry":{"type":"Point","coordinates":[43.5073,15.6065]}},{"type":"Feature","properties":{"id":"YE1721","gov":"YE17","ar":"الشاهل","en":"Ash Shahil"},"geometry":{"type":"Point","coordinates":[43.451,15.8552]}},{"type":"Feature","properties":{"id":"YE1514","gov":"YE15","ar":"الشمايتين","en":"Ash Shamayatayn"},"geometry":{"type":"Point","coordinates":[44.0062,13.1739]}},{"type":"Feature","properties":{"id":"YE1419","gov":"YE14","ar":"الشريه","en":"Ash Sharyah"},"geometry":{"type":"Point","coordinates":[45.0753,14.2838]}},{"type":"Feature","properties":{"id":"YE2402","gov":"YE24","ar":"الشيخ عثمان","en":"Ash Shaykh Othman"},"geometry":{"type":"Point","coordinates":[45.0145,12.8854]}},{"type":"Feature","properties":{"id":"YE1915","gov":"YE19","ar":"الشحر","en":"Ash Shihr"},"geometry":{"type":"Point","coordinates":[49.5783,14.9344]}},{"type":"Feature","properties":{"id":"YE3004","gov":"YE30","ar":"الشعيب","en":"Ash Shu'ayb"},"geometry":{"type":"Point","coordinates":[44.9491,13.8362]}},{"type":"Feature","properties":{"id":"YE1712","gov":"YE17","ar":"اسلم","en":"Aslam"},"geometry":{"type":"Point","coordinates":[43.2858,16.0585]}},{"type":"Feature","properties":{"id":"YE1520","gov":"YE15","ar":"التعزيه","en":"At Ta'iziyah"},"geometry":{"type":"Point","coordinates":[44.068,13.6824]}},{"type":"Feature","properties":{"id":"YE1407","gov":"YE14","ar":"الطفه","en":"At Taffah"},"geometry":{"type":"Point","coordinates":[45.3034,14.1623]}},{"type":"Feature","properties":{"id":"YE1307","gov":"YE13","ar":"التحرير","en":"At Tahrir"},"geometry":{"type":"Point","coordinates":[44.1996,15.3537]}},{"type":"Feature","properties":{"id":"YE2102","gov":"YE21","ar":"الطلح","en":"At Talh"},"geometry":{"type":"Point","coordinates":[47.3371,15.0943]}},{"type":"Feature","properties":{"id":"YE2405","gov":"YE24","ar":"التواهي","en":"At Tawahi"},"geometry":{"type":"Point","coordinates":[44.9939,12.7764]}},{"type":"Feature","properties":{"id":"YE2702","gov":"YE27","ar":"الطويله","en":"At Tawilah"},"geometry":{"type":"Point","coordinates":[43.7665,15.4631]}},{"type":"Feature","properties":{"id":"YE1826","gov":"YE18","ar":"التحيتا","en":"At Tuhayta"},"geometry":{"type":"Point","coordinates":[43.1931,14.0865]}},{"type":"Feature","properties":{"id":"YE2313","gov":"YE23","ar":"الطيال","en":"At Tyal"},"geometry":{"type":"Point","coordinates":[44.5432,15.3884]}},{"type":"Feature","properties":{"id":"YE2113","gov":"YE21","ar":"عتق","en":"Ataq"},"geometry":{"type":"Point","coordinates":[46.8501,14.5666]}},{"type":"Feature","properties":{"id":"YE1309","gov":"YE13","ar":"الثوره","en":"Ath Thawrah"},"geometry":{"type":"Point","coordinates":[44.1926,15.3908]}},{"type":"Feature","properties":{"id":"YE2106","gov":"YE21","ar":"عين","en":"Ayn"},"geometry":{"type":"Point","coordinates":[45.6005,14.9503]}},{"type":"Feature","properties":{"id":"YE1405","gov":"YE14","ar":"الزاهر","en":"Az Zahir"},"geometry":{"type":"Point","coordinates":[45.438,13.9992]}},{"type":"Feature","properties":{"id":"YE1604","gov":"YE16","ar":"الزاهر","en":"Az Zahir"},"geometry":{"type":"Point","coordinates":[44.5153,16.3308]}},{"type":"Feature","properties":{"id":"YE1807","gov":"YE18","ar":"الزيديه","en":"Az Zaydiah"},"geometry":{"type":"Point","coordinates":[43.0465,15.3001]}},{"type":"Feature","properties":{"id":"YE1801","gov":"YE18","ar":"الزهره","en":"Az Zuhrah"},"geometry":{"type":"Point","coordinates":[43.0691,15.7231]}},{"type":"Feature","properties":{"id":"YE1303","gov":"YE13","ar":"ازال","en":"Azaal"},"geometry":{"type":"Point","coordinates":[44.2422,15.3559]}},{"type":"Feature","properties":{"id":"YE1113","gov":"YE11","ar":"بعدان","en":"Ba'dan"},"geometry":{"type":"Point","coordinates":[44.298,13.9886]}},{"type":"Feature","properties":{"id":"YE1810","gov":"YE18","ar":"باجل","en":"Bajil"},"geometry":{"type":"Point","coordinates":[43.1827,15.0413]}},{"type":"Feature","properties":{"id":"YE1701","gov":"YE17","ar":"بكيل المير","en":"Bakil Al Mir"},"geometry":{"type":"Point","coordinates":[43.3446,16.5086]}},{"type":"Feature","properties":{"id":"YE1727","gov":"YE17","ar":"بني العوام","en":"Bani Al Awam"},"geometry":{"type":"Point","coordinates":[43.6142,15.5809]}},{"type":"Feature","properties":{"id":"YE1310","gov":"YE13","ar":"بني الحارث","en":"Bani Al Harith"},"geometry":{"type":"Point","coordinates":[44.2474,15.5092]}},{"type":"Feature","properties":{"id":"YE2314","gov":"YE23","ar":"بني ضبيان","en":"Bani Dabyan"},"geometry":{"type":"Point","coordinates":[44.8184,15.0498]}},{"type":"Feature","properties":{"id":"YE2304","gov":"YE23","ar":"بني حشيش","en":"Bani Hushaysh"},"geometry":{"type":"Point","coordinates":[44.3511,15.4531]}},{"type":"Feature","properties":{"id":"YE2307","gov":"YE23","ar":"بني مطر","en":"Bani Matar"},"geometry":{"type":"Point","coordinates":[44.0848,15.2152]}},{"type":"Feature","properties":{"id":"YE1724","gov":"YE17","ar":"بني قيس الطور","en":"Bani Qays"},"geometry":{"type":"Point","coordinates":[43.3307,15.6304]}},{"type":"Feature","properties":{"id":"YE2707","gov":"YE27","ar":"بني سعد","en":"Bani Sa'd"},"geometry":{"type":"Point","coordinates":[43.4887,15.2354]}},{"type":"Feature","properties":{"id":"YE2920","gov":"YE29","ar":"بني صريم","en":"Bani Surim"},"geometry":{"type":"Point","coordinates":[43.9575,16.129]}},{"type":"Feature","properties":{"id":"YE2201","gov":"YE22","ar":"باقم","en":"Baqim"},"geometry":{"type":"Point","coordinates":[43.4984,17.3918]}},{"type":"Feature","properties":{"id":"YE1610","gov":"YE16","ar":"برط العنان","en":"Barat Al Anan"},"geometry":{"type":"Point","coordinates":[44.4996,16.8649]}},{"type":"Feature","properties":{"id":"YE2107","gov":"YE21","ar":"بيحان","en":"Bayhan"},"geometry":{"type":"Point","coordinates":[45.7128,14.7561]}},{"type":"Feature","properties":{"id":"YE1817","gov":"YE18","ar":"بيت الفقيه","en":"Bayt Al Faqih"},"geometry":{"type":"Point","coordinates":[43.3109,14.4609]}},{"type":"Feature","properties":{"id":"YE2605","gov":"YE26","ar":"بدبده","en":"Bidbadah"},"geometry":{"type":"Point","coordinates":[44.747,15.4052]}},{"type":"Feature","properties":{"id":"YE2306","gov":"YE23","ar":"بلاد الروس","en":"Bilad Ar Rus"},"geometry":{"type":"Point","coordinates":[44.2591,15.036]}},{"type":"Feature","properties":{"id":"YE3101","gov":"YE31","ar":"بلاد الطعام","en":"Bilad Atta'am"},"geometry":{"type":"Point","coordinates":[43.6152,14.8374]}},{"type":"Feature","properties":{"id":"YE1925","gov":"YE19","ar":"بروم ميفع","en":"Brum Mayf'ah"},"geometry":{"type":"Point","coordinates":[48.7645,14.3467]}},{"type":"Feature","properties":{"id":"YE1812","gov":"YE18","ar":"برع","en":"Bura'"},"geometry":{"type":"Point","coordinates":[43.473,14.9073]}},{"type":"Feature","properties":{"id":"YE2101","gov":"YE21","ar":"دهر","en":"Dahr"},"geometry":{"type":"Point","coordinates":[47.5883,15.5098]}},{"type":"Feature","properties":{"id":"YE3002","gov":"YE30","ar":"دمت","en":"Damt"},"geometry":{"type":"Point","coordinates":[44.6986,14.1048]}},{"type":"Feature","properties":{"id":"YE2401","gov":"YE24","ar":"دار سعد","en":"Dar Sa'd"},"geometry":{"type":"Point","coordinates":[44.969,12.9153]}},{"type":"Feature","properties":{"id":"YE1918","gov":"YE19","ar":"دوعن","en":"Daw'an"},"geometry":{"type":"Point","coordinates":[48.3744,15.0373]}},{"type":"Feature","properties":{"id":"YE2011","gov":"YE20","ar":"ضوران انس","en":"Dawran Anis"},"geometry":{"type":"Point","coordinates":[44.0811,14.8286]}},{"type":"Feature","properties":{"id":"YE2008","gov":"YE20","ar":"مدينة ذمار","en":"Dhamar City"},"geometry":{"type":"Point","coordinates":[44.3989,14.6079]}},{"type":"Feature","properties":{"id":"YE1116","gov":"YE11","ar":"ذي السفال","en":"Dhi As Sufal"},"geometry":{"type":"Point","coordinates":[44.0713,13.8323]}},{"type":"Feature","properties":{"id":"YE1406","gov":"YE14","ar":"ذي ناعم","en":"Dhi Na'im"},"geometry":{"type":"Point","coordinates":[45.461,14.1091]}},{"type":"Feature","properties":{"id":"YE2909","gov":"YE29","ar":"ذيبين","en":"Dhibain"},"geometry":{"type":"Point","coordinates":[44.1427,16.0114]}},{"type":"Feature","properties":{"id":"YE1506","gov":"YE15","ar":"باب المندب","en":"Dhubab"},"geometry":{"type":"Point","coordinates":[43.5599,12.9765]}},{"type":"Feature","properties":{"id":"YE2908","gov":"YE29","ar":"ظليمة حبور","en":"Dhulaymat Habur"},"geometry":{"type":"Point","coordinates":[43.7094,16.0381]}},{"type":"Feature","properties":{"id":"YE1512","gov":"YE15","ar":"خدير","en":"Dimnat Khadir"},"geometry":{"type":"Point","coordinates":[44.2242,13.4413]}},{"type":"Feature","properties":{"id":"YE2918","gov":"YE29","ar":"عيال سريح","en":"Eyal Surayh"},"geometry":{"type":"Point","coordinates":[44.0127,15.649]}},{"type":"Feature","properties":{"id":"YE1110","gov":"YE11","ar":"فرع العدين","en":"Far' Al Odayn"},"geometry":{"type":"Point","coordinates":[43.7899,13.9578]}},{"type":"Feature","properties":{"id":"YE2204","gov":"YE22","ar":"غمر","en":"Ghamr"},"geometry":{"type":"Point","coordinates":[43.3439,16.976]}},{"type":"Feature","properties":{"id":"YE1917","gov":"YE19","ar":"غيل باوزير","en":"Ghayl Bawazir"},"geometry":{"type":"Point","coordinates":[49.0759,14.8817]}},{"type":"Feature","properties":{"id":"YE1916","gov":"YE19","ar":"غيل بن يمين","en":"Ghayl bin Yamin"},"geometry":{"type":"Point","coordinates":[49.4814,15.383]}},{"type":"Feature","properties":{"id":"YE2114","gov":"YE21","ar":"حبان","en":"Habban"},"geometry":{"type":"Point","coordinates":[47.1231,14.3061]}},{"type":"Feature","properties":{"id":"YE2505","gov":"YE25","ar":"حبيل جبر","en":"Habil Jabr"},"geometry":{"type":"Point","coordinates":[45.0618,13.6013]}},{"type":"Feature","properties":{"id":"YE3201","gov":"YE32","ar":"حديبو","en":"Hadibu"},"geometry":{"type":"Point","coordinates":[54.0855,12.4976]}},{"type":"Feature","properties":{"id":"YE1924","gov":"YE19","ar":"حجر","en":"Hajar"},"geometry":{"type":"Point","coordinates":[48.3292,14.5141]}},{"type":"Feature","properties":{"id":"YE1905","gov":"YE19","ar":"حجر الصيعر","en":"Hajar As Say'ar"},"geometry":{"type":"Point","coordinates":[48.0546,16.2975]}},{"type":"Feature","properties":{"id":"YE1729","gov":"YE17","ar":"حجه","en":"Hajjah"},"geometry":{"type":"Point","coordinates":[43.4718,15.6747]}},{"type":"Feature","properties":{"id":"YE1728","gov":"YE17","ar":"مدينة حجه","en":"Hajjah City"},"geometry":{"type":"Point","coordinates":[43.5932,15.684]}},{"type":"Feature","properties":{"id":"YE2506","gov":"YE25","ar":"حالمين","en":"Halmin"},"geometry":{"type":"Point","coordinates":[44.9087,13.696]}},{"type":"Feature","properties":{"id":"YE2301","gov":"YE23","ar":"همدان","en":"Hamdan"},"geometry":{"type":"Point","coordinates":[44.0532,15.48]}},{"type":"Feature","properties":{"id":"YE1702","gov":"YE17","ar":"حرض","en":"Harad"},"geometry":{"type":"Point","coordinates":[43.1054,16.4766]}},{"type":"Feature","properties":{"id":"YE2901","gov":"YE29","ar":"حرف سفيان","en":"Harf Sufyan"},"geometry":{"type":"Point","coordinates":[44.1004,16.3722]}},{"type":"Feature","properties":{"id":"YE2609","gov":"YE26","ar":"حريب","en":"Harib"},"geometry":{"type":"Point","coordinates":[45.379,14.9191]}},{"type":"Feature","properties":{"id":"YE2604","gov":"YE26","ar":"حريب القرامش","en":"Harib Al Qaramish"},"geometry":{"type":"Point","coordinates":[44.622,15.4667]}},{"type":"Feature","properties":{"id":"YE1928","gov":"YE19","ar":"حريضه","en":"Haridah"},"geometry":{"type":"Point","coordinates":[48.1562,15.5464]}},{"type":"Feature","properties":{"id":"YE2809","gov":"YE28","ar":"حصوين","en":"Haswin"},"geometry":{"type":"Point","coordinates":[51.9255,15.7255]}},{"type":"Feature","properties":{"id":"YE2802","gov":"YE28","ar":"حات","en":"Hat"},"geometry":{"type":"Point","coordinates":[51.7396,17.4196]}},{"type":"Feature","properties":{"id":"YE2111","gov":"YE21","ar":"حطيب","en":"Hatib"},"geometry":{"type":"Point","coordinates":[46.5539,14.1785]}},{"type":"Feature","properties":{"id":"YE2803","gov":"YE28","ar":"حوف","en":"Hawf"},"geometry":{"type":"Point","coordinates":[52.8148,16.7007]}},{"type":"Feature","properties":{"id":"YE2208","gov":"YE22","ar":"حيدان","en":"Haydan"},"geometry":{"type":"Point","coordinates":[43.409,16.7233]}},{"type":"Feature","properties":{"id":"YE1516","gov":"YE15","ar":"حيفان","en":"Hayfan"},"geometry":{"type":"Point","coordinates":[44.2763,13.2911]}},{"type":"Feature","properties":{"id":"YE1705","gov":"YE17","ar":"حيران","en":"Hayran"},"geometry":{"type":"Point","coordinates":[43.061,16.2546]}},{"type":"Feature","properties":{"id":"YE1819","gov":"YE18","ar":"حيس","en":"Hays"},"geometry":{"type":"Point","coordinates":[43.5044,13.9297]}},{"type":"Feature","properties":{"id":"YE1109","gov":"YE11","ar":"حزم العدين","en":"Hazm Al Odayn"},"geometry":{"type":"Point","coordinates":[43.8332,14.1117]}},{"type":"Feature","properties":{"id":"YE1108","gov":"YE11","ar":"حبيش","en":"Hobeish"},"geometry":{"type":"Point","coordinates":[44.1042,14.1177]}},{"type":"Feature","properties":{"id":"YE2706","gov":"YE27","ar":"حفاش","en":"Hufash"},"geometry":{"type":"Point","coordinates":[43.4327,15.3751]}},{"type":"Feature","properties":{"id":"YE2902","gov":"YE29","ar":"حوث","en":"Huth"},"geometry":{"type":"Point","coordinates":[43.9829,16.2758]}},{"type":"Feature","properties":{"id":"YE1120","gov":"YE11","ar":"اب","en":"Ibb"},"geometry":{"type":"Point","coordinates":[44.0926,13.9921]}},{"type":"Feature","properties":{"id":"YE2003","gov":"YE20","ar":"جبل الشرق","en":"Jabal Ash sharq"},"geometry":{"type":"Point","coordinates":[43.9197,14.7377]}},{"type":"Feature","properties":{"id":"YE2912","gov":"YE29","ar":"جبل عيال يزيد","en":"Jabal Eyal Yazid"},"geometry":{"type":"Point","coordinates":[43.9352,15.7704]}},{"type":"Feature","properties":{"id":"YE1508","gov":"YE15","ar":"جبل حبشي","en":"Jabal Habashi"},"geometry":{"type":"Point","coordinates":[43.8946,13.4647]}},{"type":"Feature","properties":{"id":"YE2614","gov":"YE26","ar":"جبل مراد","en":"Jabal Murad"},"geometry":{"type":"Point","coordinates":[45.1916,15.0451]}},{"type":"Feature","properties":{"id":"YE1818","gov":"YE18","ar":"جبل راس","en":"Jabal Ras"},"geometry":{"type":"Point","coordinates":[43.6369,14.0303]}},{"type":"Feature","properties":{"id":"YE3007","gov":"YE30","ar":"جحاف","en":"Jahaf"},"geometry":{"type":"Point","coordinates":[44.664,13.7303]}},{"type":"Feature","properties":{"id":"YE2002","gov":"YE20","ar":"جهران","en":"Jahran"},"geometry":{"type":"Point","coordinates":[44.3041,14.7331]}},{"type":"Feature","properties":{"id":"YE2103","gov":"YE21","ar":"جردان","en":"Jardan"},"geometry":{"type":"Point","coordinates":[46.5913,15.1832]}},{"type":"Feature","properties":{"id":"YE1203","gov":"YE12","ar":"جيشان","en":"Jayshan"},"geometry":{"type":"Point","coordinates":[46.1816,14.1692]}},{"type":"Feature","properties":{"id":"YE1112","gov":"YE11","ar":"جبله","en":"Jiblah"},"geometry":{"type":"Point","coordinates":[44.1155,13.9117]}},{"type":"Feature","properties":{"id":"YE2316","gov":"YE23","ar":"جحانه","en":"Jihanah"},"geometry":{"type":"Point","coordinates":[44.5094,15.1936]}},{"type":"Feature","properties":{"id":"YE3001","gov":"YE30","ar":"جبن","en":"Juban"},"geometry":{"type":"Point","coordinates":[44.9603,14.0517]}},{"type":"Feature","properties":{"id":"YE1803","gov":"YE18","ar":"كمران","en":"Kamaran"},"geometry":{"type":"Point","coordinates":[42.5906,15.3601]}},{"type":"Feature","properties":{"id":"YE1601","gov":"YE16","ar":"خب و الشعف","en":"Khab wa Ash Sha'f"},"geometry":{"type":"Point","coordinates":[45.8456,16.5871]}},{"type":"Feature","properties":{"id":"YE2919","gov":"YE29","ar":"خمر","en":"Khamir"},"geometry":{"type":"Point","coordinates":[43.9339,15.9971]}},{"type":"Feature","properties":{"id":"YE1211","gov":"YE12","ar":"خنفر","en":"Khanfar"},"geometry":{"type":"Point","coordinates":[45.3942,13.3339]}},{"type":"Feature","properties":{"id":"YE1612","gov":"YE16","ar":"خراب المراشى","en":"Kharab Al Marashi"},"geometry":{"type":"Point","coordinates":[44.2729,16.6055]}},{"type":"Feature","properties":{"id":"YE2910","gov":"YE29","ar":"خارف","en":"Kharif"},"geometry":{"type":"Point","coordinates":[44.0974,15.8545]}},{"type":"Feature","properties":{"id":"YE2312","gov":"YE23","ar":"خولان","en":"Khawlan"},"geometry":{"type":"Point","coordinates":[44.6855,15.2733]}},{"type":"Feature","properties":{"id":"YE1711","gov":"YE17","ar":"خيران المحرق","en":"Khayran Al Muharraq"},"geometry":{"type":"Point","coordinates":[43.3802,16.0742]}},{"type":"Feature","properties":{"id":"YE2408","gov":"YE24","ar":"خور مكسر","en":"Khur Maksar"},"geometry":{"type":"Point","coordinates":[45.0484,12.8666]}},{"type":"Feature","properties":{"id":"YE2214","gov":"YE22","ar":"كتاف والبقع","en":"Kitaf wa Al Boqa'"},"geometry":{"type":"Point","coordinates":[44.2136,17.0881]}},{"type":"Feature","properties":{"id":"YE2407","gov":"YE24","ar":"صيره","en":"Kritar - Sirah"},"geometry":{"type":"Point","coordinates":[45.0267,12.7721]}},{"type":"Feature","properties":{"id":"YE1722","gov":"YE17","ar":"كعيدنه","en":"Ku'aydinah"},"geometry":{"type":"Point","coordinates":[43.3258,15.8192]}},{"type":"Feature","properties":{"id":"YE1718","gov":"YE17","ar":"كحلان عفار","en":"Kuhlan Afar"},"geometry":{"type":"Point","coordinates":[43.6852,15.7583]}},{"type":"Feature","properties":{"id":"YE1709","gov":"YE17","ar":"كحلان الشرف","en":"Kuhlan Ash Sharaf"},"geometry":{"type":"Point","coordinates":[43.468,16.0255]}},{"type":"Feature","properties":{"id":"YE1707","gov":"YE17","ar":"كشر","en":"Kushar"},"geometry":{"type":"Point","coordinates":[43.4713,16.1724]}},{"type":"Feature","properties":{"id":"YE3105","gov":"YE31","ar":"كسمه","en":"Kusmah"},"geometry":{"type":"Point","coordinates":[43.6662,14.5457]}},{"type":"Feature","properties":{"id":"YE1204","gov":"YE12","ar":"لودر","en":"Lawdar"},"geometry":{"type":"Point","coordinates":[45.7458,13.812]}},{"type":"Feature","properties":{"id":"YE1308","gov":"YE13","ar":"معين","en":"Ma'in"},"geometry":{"type":"Point","coordinates":[44.1621,15.379]}},{"type":"Feature","properties":{"id":"YE2613","gov":"YE26","ar":"مارب","en":"Ma'rib"},"geometry":{"type":"Point","coordinates":[45.771,15.6374]}},{"type":"Feature","properties":{"id":"YE2612","gov":"YE26","ar":"مدينة مارب","en":"Ma'rib City"},"geometry":{"type":"Point","coordinates":[45.298,15.4241]}},{"type":"Feature","properties":{"id":"YE1720","gov":"YE17","ar":"مبين","en":"Mabyan"},"geometry":{"type":"Point","coordinates":[43.5511,15.755]}},{"type":"Feature","properties":{"id":"YE2603","gov":"YE26","ar":"مدغل الجدعان","en":"Madghal Al Jid'an"},"geometry":{"type":"Point","coordinates":[45.0438,15.6286]}},{"type":"Feature","properties":{"id":"YE2004","gov":"YE20","ar":"مغرب عنس","en":"Maghrib Ans"},"geometry":{"type":"Point","coordinates":[44.1239,14.466]}},{"type":"Feature","properties":{"id":"YE2610","gov":"YE26","ar":"ماهليه","en":"Mahliyah"},"geometry":{"type":"Point","coordinates":[45.1774,14.6671]}},{"type":"Feature","properties":{"id":"YE2210","gov":"YE22","ar":"مجز","en":"Majz"},"geometry":{"type":"Point","coordinates":[43.516,17.1459]}},{"type":"Feature","properties":{"id":"YE2601","gov":"YE26","ar":"مجزر","en":"Majzar"},"geometry":{"type":"Point","coordinates":[44.8255,15.7925]}},{"type":"Feature","properties":{"id":"YE2805","gov":"YE28","ar":"منعر","en":"Man'ar"},"geometry":{"type":"Point","coordinates":[51.0573,16.452]}},{"type":"Feature","properties":{"id":"YE2310","gov":"YE23","ar":"مناخه","en":"Manakhah"},"geometry":{"type":"Point","coordinates":[43.7307,15.0709]}},{"type":"Feature","properties":{"id":"YE1504","gov":"YE15","ar":"مقبنه","en":"Maqbanah"},"geometry":{"type":"Point","coordinates":[43.6859,13.6219]}},{"type":"Feature","properties":{"id":"YE2108","gov":"YE21","ar":"مرخة العليا","en":"Markhah Al Olya"},"geometry":{"type":"Point","coordinates":[45.9205,14.5035]}},{"type":"Feature","properties":{"id":"YE2109","gov":"YE21","ar":"مرخة السفلى","en":"Markhah As Sufla"},"geometry":{"type":"Point","coordinates":[46.1623,14.6995]}},{"type":"Feature","properties":{"id":"YE1509","gov":"YE15","ar":"مشرعة وحدنان","en":"Mashr'ah Wa Hadnan"},"geometry":{"type":"Point","coordinates":[43.9971,13.5408]}},{"type":"Feature","properties":{"id":"YE2916","gov":"YE29","ar":"مسور","en":"Maswar"},"geometry":{"type":"Point","coordinates":[43.6948,15.5972]}},{"type":"Feature","properties":{"id":"YE1403","gov":"YE14","ar":"مسوره","en":"Maswarah"},"geometry":{"type":"Point","coordinates":[45.6778,14.4087]}},{"type":"Feature","properties":{"id":"YE1501","gov":"YE15","ar":"ماويه","en":"Mawiyah"},"geometry":{"type":"Point","coordinates":[44.3483,13.6132]}},{"type":"Feature","properties":{"id":"YE1507","gov":"YE15","ar":"موزع","en":"Mawza'"},"geometry":{"type":"Point","coordinates":[43.6695,13.3677]}},{"type":"Feature","properties":{"id":"YE2116","gov":"YE21","ar":"ميفعه","en":"Mayfa'ah"},"geometry":{"type":"Point","coordinates":[47.7151,14.4116]}},{"type":"Feature","properties":{"id":"YE2009","gov":"YE20","ar":"ميفعة عنس","en":"Mayfa'at Ans"},"geometry":{"type":"Point","coordinates":[44.6101,14.515]}},{"type":"Feature","properties":{"id":"YE3104","gov":"YE31","ar":"مزهر","en":"Mazhar"},"geometry":{"type":"Point","coordinates":[43.7461,14.5681]}},{"type":"Feature","properties":{"id":"YE2705","gov":"YE27","ar":"ملحان","en":"Melhan"},"geometry":{"type":"Point","coordinates":[43.3243,15.3235]}},{"type":"Feature","properties":{"id":"YE1703","gov":"YE17","ar":"ميدي","en":"Midi"},"geometry":{"type":"Point","coordinates":[42.8952,16.1776]}},{"type":"Feature","properties":{"id":"YE2203","gov":"YE22","ar":"منبه","en":"Monabbih"},"geometry":{"type":"Point","coordinates":[43.2421,17.1689]}},{"type":"Feature","properties":{"id":"YE1117","gov":"YE11","ar":"مذيخره","en":"Mudhaykhirah"},"geometry":{"type":"Point","coordinates":[43.9744,13.859]}},{"type":"Feature","properties":{"id":"YE1202","gov":"YE12","ar":"موديه","en":"Mudiyah"},"geometry":{"type":"Point","coordinates":[46.2018,13.9494]}},{"type":"Feature","properties":{"id":"YE1408","gov":"YE14","ar":"مكيراس","en":"Mukayras"},"geometry":{"type":"Point","coordinates":[45.8677,14.0259]}},{"type":"Feature","properties":{"id":"YE1706","gov":"YE17","ar":"مستباء","en":"Mustaba"},"geometry":{"type":"Point","coordinates":[43.2532,16.2744]}},{"type":"Feature","properties":{"id":"YE1726","gov":"YE17","ar":"نجره","en":"Najrah"},"geometry":{"type":"Point","coordinates":[43.5469,15.647]}},{"type":"Feature","properties":{"id":"YE1402","gov":"YE14","ar":"ناطع","en":"Nati'"},"geometry":{"type":"Point","coordinates":[45.588,14.5371]}},{"type":"Feature","properties":{"id":"YE2303","gov":"YE23","ar":"نهم","en":"Nihm"},"geometry":{"type":"Point","coordinates":[44.5477,15.739]}},{"type":"Feature","properties":{"id":"YE2110","gov":"YE21","ar":"نصاب","en":"Nisab"},"geometry":{"type":"Point","coordinates":[46.442,14.5328]}},{"type":"Feature","properties":{"id":"YE1401","gov":"YE14","ar":"نعمان","en":"Nu'man"},"geometry":{"type":"Point","coordinates":[45.541,14.6215]}},{"type":"Feature","properties":{"id":"YE1301","gov":"YE13","ar":"صنعاء القديمه","en":"Old City"},"geometry":{"type":"Point","coordinates":[44.2148,15.3549]}},{"type":"Feature","properties":{"id":"YE2105","gov":"YE21","ar":"عسيلان","en":"Osaylan"},"geometry":{"type":"Point","coordinates":[45.9942,15.1189]}},{"type":"Feature","properties":{"id":"YE2005","gov":"YE20","ar":"عتمه","en":"Otmah"},"geometry":{"type":"Point","coordinates":[43.9451,14.4749]}},{"type":"Feature","properties":{"id":"YE3003","gov":"YE30","ar":"قعطبه","en":"Qa'tabah"},"geometry":{"type":"Point","coordinates":[44.6362,13.929]}},{"type":"Feature","properties":{"id":"YE1713","gov":"YE17","ar":"قفل شمر","en":"Qafl Shammar"},"geometry":{"type":"Point","coordinates":[43.3591,15.9072]}},{"type":"Feature","properties":{"id":"YE2904","gov":"YE29","ar":"قفلة عذر","en":"Qaflat Odhar"},"geometry":{"type":"Point","coordinates":[43.7148,16.2894]}},{"type":"Feature","properties":{"id":"YE3202","gov":"YE32","ar":"قلنسية وعبد الكوري","en":"Qalansiyah wa Abd Al Kuri"},"geometry":{"type":"Point","coordinates":[53.5457,12.5341]}},{"type":"Feature","properties":{"id":"YE1731","gov":"YE17","ar":"قاره","en":"Qarah"},"geometry":{"type":"Point","coordinates":[43.476,16.353]}},{"type":"Feature","properties":{"id":"YE2202","gov":"YE22","ar":"قطابر","en":"Qatabir"},"geometry":{"type":"Point","coordinates":[43.3542,17.3296]}},{"type":"Feature","properties":{"id":"YE2808","gov":"YE28","ar":"قشن","en":"Qishn"},"geometry":{"type":"Point","coordinates":[51.5249,15.6735]}},{"type":"Feature","properties":{"id":"YE1413","gov":"YE14","ar":"رداع","en":"Rada'"},"geometry":{"type":"Point","coordinates":[44.9046,14.3303]}},{"type":"Feature","properties":{"id":"YE2507","gov":"YE25","ar":"ردفان","en":"Radfan"},"geometry":{"type":"Point","coordinates":[45.0045,13.4893]}},{"type":"Feature","properties":{"id":"YE1412","gov":"YE14","ar":"ردمان","en":"Radman"},"geometry":{"type":"Point","coordinates":[45.2603,14.4727]}},{"type":"Feature","properties":{"id":"YE2117","gov":"YE21","ar":"رضوم","en":"Radum"},"geometry":{"type":"Point","coordinates":[47.5274,13.9784]}},{"type":"Feature","properties":{"id":"YE2602","gov":"YE26","ar":"رغوان","en":"Raghwan"},"geometry":{"type":"Point","coordinates":[45.0666,15.7743]}},{"type":"Feature","properties":{"id":"YE2608","gov":"YE26","ar":"رحبه","en":"Rahabah"},"geometry":{"type":"Point","coordinates":[45.1022,14.9572]}},{"type":"Feature","properties":{"id":"YE1611","gov":"YE16","ar":"رجوزه","en":"Rajuzah"},"geometry":{"type":"Point","coordinates":[44.5129,16.6195]}},{"type":"Feature","properties":{"id":"YE1920","gov":"YE19","ar":"رخيه","en":"Rakhyah"},"geometry":{"type":"Point","coordinates":[47.8047,15.4746]}},{"type":"Feature","properties":{"id":"YE1206","gov":"YE12","ar":"رصد","en":"Rassd"},"geometry":{"type":"Point","coordinates":[45.3187,13.7252]}},{"type":"Feature","properties":{"id":"YE2911","gov":"YE29","ar":"ريده","en":"Raydah"},"geometry":{"type":"Point","coordinates":[44.0318,15.7704]}},{"type":"Feature","properties":{"id":"YE2205","gov":"YE22","ar":"رازح","en":"Razih"},"geometry":{"type":"Point","coordinates":[43.2608,16.9245]}},{"type":"Feature","properties":{"id":"YE1901","gov":"YE19","ar":"رماه","en":"Rumah"},"geometry":{"type":"Point","coordinates":[50.8781,17.8264]}},{"type":"Feature","properties":{"id":"YE2215","gov":"YE22","ar":"صعده","en":"Sa'dah"},"geometry":{"type":"Point","coordinates":[43.7571,16.9288]}},{"type":"Feature","properties":{"id":"YE2311","gov":"YE23","ar":"صعفان","en":"Sa'fan"},"geometry":{"type":"Point","coordinates":[43.5923,15.0719]}},{"type":"Feature","properties":{"id":"YE1417","gov":"YE14","ar":"صباح","en":"Sabah"},"geometry":{"type":"Point","coordinates":[44.6773,14.2708]}},{"type":"Feature","properties":{"id":"YE1510","gov":"YE15","ar":"صبر الموادم","en":"Sabir Al Mawadim"},"geometry":{"type":"Point","coordinates":[44.0465,13.5303]}},{"type":"Feature","properties":{"id":"YE1909","gov":"YE19","ar":"ساه","en":"Sah"},"geometry":{"type":"Point","coordinates":[48.9112,15.508]}},{"type":"Feature","properties":{"id":"YE2211","gov":"YE22","ar":"سحار","en":"Sahar"},"geometry":{"type":"Point","coordinates":[43.6239,16.9314]}},{"type":"Feature","properties":{"id":"YE1519","gov":"YE15","ar":"صاله","en":"Salah"},"geometry":{"type":"Point","coordinates":[44.0353,13.5808]}},{"type":"Feature","properties":{"id":"YE1523","gov":"YE15","ar":"سامع","en":"Sami'"},"geometry":{"type":"Point","coordinates":[44.1233,13.3808]}},{"type":"Feature","properties":{"id":"YE1319","gov":"YE13","ar":"ضواحي الامانة همدان","en":"Sana'a City Outskirts - Hamdan"},"geometry":{"type":"Point","coordinates":[44.1368,15.4133]}},{"type":"Feature","properties":{"id":"YE1324","gov":"YE13","ar":"ضواحي الامانة سنحان وبني بهلول","en":"Sana'a City Outskirts -Sanhan wa Bani Bahlul"},"geometry":{"type":"Point","coordinates":[44.247,15.2675]}},{"type":"Feature","properties":{"id":"YE2305","gov":"YE23","ar":"سنحان وبني بهلول","en":"Sanhan wa Bani Bahlul"},"geometry":{"type":"Point","coordinates":[44.3285,15.2261]}},{"type":"Feature","properties":{"id":"YE2209","gov":"YE22","ar":"ساقين","en":"Saqin"},"geometry":{"type":"Point","coordinates":[43.5074,16.7974]}},{"type":"Feature","properties":{"id":"YE1207","gov":"YE12","ar":"سرار","en":"Sarar"},"geometry":{"type":"Point","coordinates":[45.3887,13.58]}},{"type":"Feature","properties":{"id":"YE2807","gov":"YE28","ar":"سيحوت","en":"Sayhut"},"geometry":{"type":"Point","coordinates":[51.2321,15.5239]}},{"type":"Feature","properties":{"id":"YE1910","gov":"YE19","ar":"سيئون","en":"Sayun"},"geometry":{"type":"Point","coordinates":[48.8398,16.0151]}},{"type":"Feature","properties":{"id":"YE2206","gov":"YE22","ar":"شداء","en":"Shada'a"},"geometry":{"type":"Point","coordinates":[43.191,16.8854]}},{"type":"Feature","properties":{"id":"YE2905","gov":"YE29","ar":"شهاره","en":"Shaharah"},"geometry":{"type":"Point","coordinates":[43.7116,16.1855]}},{"type":"Feature","properties":{"id":"YE2801","gov":"YE28","ar":"شحن","en":"Shahin"},"geometry":{"type":"Point","coordinates":[52.3361,17.916]}},{"type":"Feature","properties":{"id":"YE1503","gov":"YE15","ar":"شرعب الرونه","en":"Shar'ab Ar Rawnah"},"geometry":{"type":"Point","coordinates":[43.8267,13.7315]}},{"type":"Feature","properties":{"id":"YE1502","gov":"YE15","ar":"شرعب السلام","en":"Shar'ab As Salam"},"geometry":{"type":"Point","coordinates":[43.8924,13.7834]}},{"type":"Feature","properties":{"id":"YE1719","gov":"YE17","ar":"شرس","en":"Sharas"},"geometry":{"type":"Point","coordinates":[43.6397,15.7314]}},{"type":"Feature","properties":{"id":"YE1908","gov":"YE19","ar":"شبام","en":"Shibam"},"geometry":{"type":"Point","coordinates":[48.6597,15.8811]}},{"type":"Feature","properties":{"id":"YE2701","gov":"YE27","ar":"شبام كوكبان","en":"Shibam Kawkaban"},"geometry":{"type":"Point","coordinates":[43.8498,15.4755]}},{"type":"Feature","properties":{"id":"YE1302","gov":"YE13","ar":"شعوب","en":"Shu'ub"},"geometry":{"type":"Point","coordinates":[44.2279,15.3863]}},{"type":"Feature","properties":{"id":"YE1205","gov":"YE12","ar":"سباح","en":"Sibah"},"geometry":{"type":"Point","coordinates":[45.4229,13.8143]}},{"type":"Feature","properties":{"id":"YE2606","gov":"YE26","ar":"صرواح","en":"Sirwah"},"geometry":{"type":"Point","coordinates":[45.0193,15.4409]}},{"type":"Feature","properties":{"id":"YE2907","gov":"YE29","ar":"صوير","en":"Suwayr"},"geometry":{"type":"Point","coordinates":[43.6297,16.0619]}},{"type":"Feature","properties":{"id":"YE1911","gov":"YE19","ar":"تريم","en":"Tarim"},"geometry":{"type":"Point","coordinates":[49.0505,16.0788]}},{"type":"Feature","properties":{"id":"YE1902","gov":"YE19","ar":"ثمود","en":"Thamud"},"geometry":{"type":"Point","coordinates":[50.012,17.6411]}},{"type":"Feature","properties":{"id":"YE2917","gov":"YE29","ar":"ثلاء","en":"Thula"},"geometry":{"type":"Point","coordinates":[43.8324,15.5902]}},{"type":"Feature","properties":{"id":"YE2515","gov":"YE25","ar":"تبن","en":"Tuban"},"geometry":{"type":"Point","coordinates":[44.9092,13.0849]}},{"type":"Feature","properties":{"id":"YE2511","gov":"YE25","ar":"طور الباحه","en":"Tur Al Bahah"},"geometry":{"type":"Point","coordinates":[44.4802,13.0011]}},{"type":"Feature","properties":{"id":"YE1919","gov":"YE19","ar":"وادي العين","en":"Wadi Al Ayn"},"geometry":{"type":"Point","coordinates":[48.5214,15.44]}},{"type":"Feature","properties":{"id":"YE1723","gov":"YE17","ar":"وضره","en":"Wadrah"},"geometry":{"type":"Point","coordinates":[43.4677,15.7138]}},{"type":"Feature","properties":{"id":"YE1415","gov":"YE14","ar":"ولدربيع","en":"Wald Rabi'"},"geometry":{"type":"Point","coordinates":[45.0237,14.64]}},{"type":"Feature","properties":{"id":"YE1730","gov":"YE17","ar":"وشحه","en":"Washhah"},"geometry":{"type":"Point","coordinates":[43.3856,16.3359]}},{"type":"Feature","properties":{"id":"YE2006","gov":"YE20","ar":"وصاب العالي","en":"Wusab Al Aali"},"geometry":{"type":"Point","coordinates":[43.823,14.3332]}},{"type":"Feature","properties":{"id":"YE2007","gov":"YE20","ar":"وصاب السافل","en":"Wusab As Safil"},"geometry":{"type":"Point","coordinates":[43.6272,14.2502]}},{"type":"Feature","properties":{"id":"YE1923","gov":"YE19","ar":"يبعث","en":"Yab'uth"},"geometry":{"type":"Point","coordinates":[47.7415,14.7767]}},{"type":"Feature","properties":{"id":"YE2502","gov":"YE25","ar":"يافع","en":"Yafi'"},"geometry":{"type":"Point","coordinates":[45.2308,13.8609]}},{"type":"Feature","properties":{"id":"YE2504","gov":"YE25","ar":"يهر","en":"Yahr"},"geometry":{"type":"Point","coordinates":[45.152,13.7224]}},{"type":"Feature","properties":{"id":"YE1102","gov":"YE11","ar":"يريم","en":"Yarim"},"geometry":{"type":"Point","coordinates":[44.373,14.2891]}},{"type":"Feature","properties":{"id":"YE1824","gov":"YE18","ar":"زبيد","en":"Zabid"},"geometry":{"type":"Point","coordinates":[43.299,14.2728]}},{"type":"Feature","properties":{"id":"YE1904","gov":"YE19","ar":"زمخ ومنوخ","en":"Zamakh wa Manwokh"},"geometry":{"type":"Point","coordinates":[48.0291,17.1709]}},{"type":"Feature","properties":{"id":"YE1210","gov":"YE12","ar":"زنجبار","en":"Zinjibar"},"geometry":{"type":"Point","coordinates":[45.4112,13.143]}}]}