{"type":"FeatureCollection","features":[{"type":"Feature","properties":{"id":"YE12","ar":"أبين","en":"Abyan"},"geometry":{"type":"Point","coordinates":[46.2368,13.631]}},{"type":"Feature","properties":{"id":"YE30","ar":"الضالع","en":"Ad Dali'"},"geometry":{"type":"Point","coordinates":[44.7901,13.8911]}},{"type":"Feature","properties":{"id":"YE24","ar":"عدن","en":"Aden"},"geometry":{"type":"Point","coordinates":[44.7819,12.8104]}},{"type":"Feature","properties":{"id":"YE14","ar":"البيضاء","en":"Al Bayda"},"geometry":{"type":"Point","coordinates":[45.2795,14.3256]}},{"type":"Feature","properties":{"id":"YE18","ar":"الحديدة","en":"Al Hodeidah"},"geometry":{"type":"Point","coordinates":[43.2176,14.7822]}},{"type":"Feature","properties":{"id":"YE16","ar":"الجوف","en":"Al Jawf"},"geometry":{"type":"Point","coordinates":[45.5937,16.5938]}},{"type":"Feature","properties":{"id":"YE28","ar":"المهرة","en":"Al Maharah"},"geometry":{"type":"Point","coordinates":[52.0255,17.0491]}},{"type":"Feature","properties":{"id":"YE27","ar":"المحويت","en":"Al Mahwit"},"geometry":{"type":"Point","coordinates":[43.5016,15.314]}},{"type":"Feature","properties":{"id":"YE29","ar":"عمران","en":"Amran"},"geometry":{"type":"Point","coordinates":[43.937,16.1075]}},{"type":"Feature","properties":{"id":"YE20","ar":"ذمار","en":"Dhamar"},"geometry":{"type":"Point","coordinates":[44.3028,14.5421]}},{"type":"Feature","properties":{"id":"YE19","ar":"حضرموت","en":"Hadramawt"},"geometry":{"type":"Point","coordinates":[48.6313,16.5228]}},{"type":"Feature","properties":{"id":"YE17","ar":"حجة","en":"Hajjah"},"geometry":{"type":"Point","coordinates":[43.2031,16.091]}},{"type":"Feature","properties":{"id":"YE11","ar":"إب","en":"Ibb"},"geometry":{"type":"Point","coordinates":[44.1804,14.0836]}},{"type":"Feature","properties":{"id":"YE25","ar":"لحج","en":"Lahj"},"geometry":{"type":"Point","coordinates":[44.7459,13.3261]}},{"type":"Feature","properties":{"id":"YE26","ar":"مأرب","en":"Ma'rib"},"geometry":{"type":"Point","coordinates":[45.4475,15.3245]}},{"type":"Feature","properties":{"id":"YE31","ar":"ريمة","en":"Raymah"},"geometry":{"type":"Point","coordinates":[43.6888,14.6563]}},{"type":"Feature","properties":{"id":"YE22","ar":"صعدة","en":"Sa'dah"},"geometry":{"type":"Point","coordinates":[43.8633,17.0816]}},{"type":"Feature","properties":{"id":"YE23","ar":"صنعاء","en":"Sana'a"},"geometry":{"type":"Point","coordinates":[44.4617,15.4035]}},{"type":"Feature","properties":{"id":"YE13","ar":"أمانة العاصمة","en":"Sana'a City"},"geometry":{"type":"Point","coordinates":[44.1756,15.4093]}},{"type":"Feature","properties":{"id":"YE21","ar":"شبوة","en":"Shabwah"},"geometry":{"type":"Point","coordinates":[46.656,14.6614]}},{"type":"Feature","properties":{"id":"YE32","ar":"سقطرى","en":"Socotra"},"geometry":{"type":"Point","coordinates":[53.895,12.5046]}},{"type":"Feature","properties":{"id":"YE15","ar":"تعز","en":"Taiz"},"geometry":{"type":"Point","coordinates":[43.7849,13.2933]}}]}