{"type":"FeatureCollection","features":[{"type":"Feature","properties":{"ar":"المحيط المتجمد الشمالي","en":"Arctic Ocean"},"geometry":{"type":"Polygon","coordinates":[[[138.85,76.25],[156.05,77.45],[179.55,71.45],[180,90],[-180,90],[-180,71.55],[-177.5,71.2],[-156.45,71.4],[-156.4,71.4],[-122.5,76.35],[-116.35,77.55],[-115.05,77.95],[-113.8,77.9],[-113.3,78.35],[-110.4,78.75],[-105.55,79.05],[-103.6,79.35],[-100.15,80],[-99,80.1],[-96.75,80.15],[-95.25,81],[-87.65,80.35],[-85.7,79.6],[-85.65,79.7],[-86.3,80.3],[-91.65,81.7],[-79.9,82.95],[-69.85,83.15],[-40.35,83.45],[-25.9,83.3],[17.95,80.15],[27.05,80.1],[44.95,80.6],[48.4,80.65],[48.4,80.55],[49.85,80.9],[58,81.8],[59.35,81.85],[63.05,81.7],[63.7,81.6],[65.15,81.15],[65.35,81.05],[89.9,81.15],[91.4,81.2],[95.15,81.25],[96.2,81.2],[138.85,76.25]]]}},{"type":"Feature","properties":{"ar":"المحيط الجنوبي","en":"Southern Ocean"},"geometry":{"type":"Polygon","coordinates":[[[-63.7,-64.35],[-62.6,-63.05],[-58.7,-62],[-55.05,-61.2],[-54.7,-61.15],[-54.2,-61.25],[-55.1,-63.3],[-58.25,-63.75],[-62.15,-65.35],[-65.5,-67.4],[-65.65,-68.15],[-63.45,-69.05],[-61.05,-71.15],[-11.95,-71.15],[-0.9,-71.35],[5.1,-70.65],[12.95,-70.2],[19.25,-70.9],[27.2,-70.9],[32.6,-70],[33.1,-68.7],[40.8,-68.7],[51.9,-66],[55.7,-66.1],[59.25,-67.5],[63.7,-67.5],[69.6,-67.8],[79.15,-68.15],[83.75,-67.35],[85.4,-65.05],[92.65,-63.3],[99.5,-63.15],[108.9,-64.05],[114.35,-66.35],[115.25,-67.05],[119.15,-67.35],[125.4,-66.4],[133.45,-66.1],[135.35,-66.15],[143.45,-66.9],[146.8,-68.25],[151.05,-68.4],[159.8,-69.5],[161.05,-70.3],[167.55,-70.8],[170.75,-71.95],[180,-71.95],[180,-60.55],[166.05,-60.55],[19.6,-60.55],[-44.85,-60.55],[-45.6,-60.55],[-45.95,-60.55],[-56.25,-60.55],[-68.1,-60.55],[-180,-60.55],[-180,-71.95],[-107.15,-71.95],[-102.15,-72],[-98.6,-71.75],[-95.6,-72.2],[-71.85,-68.95],[-70.4,-68.8],[-68.05,-66.7],[-67.95,-66.65],[-66.95,-67],[-64.05,-65.55],[-64.15,-64.6],[-63.9,-64.5],[-63.9,-64.45],[-63.8,-64.45],[-63.7,-64.35]]]}},{"type":"Feature","properties":{"ar":"المحيط الأطلسي","en":"Atlantic Ocean"},"geometry":{"type":"Polygon","coordinates":[[[-13.85,64.85],[-18.65,63.4],[-20.2,63.55],[-22.45,64.8],[-24,64.85],[-31,68.05],[-33.15,67.65],[-36.4,65.85],[-40.65,64.9],[-40.55,63.75],[-43.95,59.8],[-52.75,47.75],[-53.05,46.7],[-54.85,47.4],[-55.95,46.95],[-59.9,46.15],[-61.45,45.7],[-61.5,45.7],[-61.3,45.25],[-65.75,43.55],[-69.95,41.7],[-72.25,41.3],[-73.95,40.35],[-75.95,37.15],[-76,36.9],[-75.55,35.3],[-77.15,34.7],[-78,33.9],[-80.85,32.1],[-81.5,30.85],[-80.05,26.6],[-78.95,26.65],[-78.8,26.55],[-78.15,25.2],[-78.45,24.65],[-80.65,23.1],[-75.7,21.1],[-74.15,20.2],[-73.35,19.8],[-70.95,19.9],[-68.35,18.55],[-67.2,18.4],[-65.65,18.4],[-63.55,18.7],[-61.65,18.1],[-59.75,14.95],[-59.2,12.8],[-60.25,11.4],[-61,9.55],[-60.35,8.65],[-59.2,8.05],[-58.5,7.05],[-56.95,6],[-54.85,6],[-52.9,5.45],[-51.2,4.1],[-50.25,0.9],[-49.4,0],[6.55,0.05],[6.45,0.25],[-7.55,4.35],[-9.15,5.05],[-12.9,7.85],[-13.7,9.85],[-14.45,10.25],[-15.5,11.7],[-16.7,12.35],[-16.6,13.7],[-17.15,14.65],[-16.55,15.85],[-16.1,17.55],[-16.5,19.35],[-16.2,20.25],[-16.9,21.1],[-16.5,22.35],[-15.05,24.55],[-14.4,26.25],[-13.6,26.75],[-12.95,27.9],[-11.45,28.4],[-9.65,30.1],[-9.8,31.4],[-9.25,32.55],[-6.9,33.95],[-5.95,35.8],[-5.75,35.8],[-5.65,35.85],[-5.75,36.05],[-6.05,36.2],[-6.9,37.2],[-8.8,37.45],[-9.45,38.75],[-8.65,41.05],[-9.25,43],[-8,43.7],[-5.9,48.45],[-6.55,49.75],[-5.7,50.1],[-6.4,51.7],[-6.6,52.2],[-9.3,51.5],[-9.95,52.15],[-9.3,53.1],[-10,54.3],[-8.25,55.15],[-7.35,57.1],[-7.35,57.4],[-7.3,57.55],[-7.15,57.65],[-7.05,57.8],[-6.25,58.5],[-5,58.55],[-3.05,58.65],[-1.3,59.9],[-1.55,60.5],[-6.65,61.7],[-13.85,64.85]],[[-67.6,35.05],[-53.85,35.05],[-51.5,34.6],[-50.4,33.8],[-50.05,32.35],[-50.05,23.5],[-50.65,21.25],[-51.8,20.35],[-53.9,20.05],[-57.65,20.05],[-61.6,20.45],[-66.45,21.9],[-67.9,22.6],[-69.75,24.15],[-70.05,25.15],[-70.05,31.5],[-69.6,33.8],[-68.8,34.8],[-67.6,35.05]]]}},{"type":"Feature","properties":{"ar":"المحيط الهادئ","en":"Pacific Ocean"},"geometry":{"type":"MultiPolygon","coordinates":[[[[180,51],[178.2,51.05],[173.2,51.9],[170.35,52.85],[167.05,54.15],[163.3,56.2],[162.15,54.85],[160.05,53.1],[158.6,52.85],[157.15,51.15],[153.55,47.85],[151.8,46.55],[147.05,43.8],[145.8,43.4],[143.95,42.9],[141.7,40.4],[141.9,39.1],[140.95,37.95],[140.85,35.75],[139.05,34.75],[139.8,33.9],[140.9,30],[142.45,27.6],[142.55,26.7],[141.55,23.85],[141.55,22.55],[142.4,21.25],[145.35,20.65],[146.2,18.85],[146.3,16.6],[145.9,14.6],[144.7,12.9],[128.55,2.6],[128.6,2.6],[129.9,-0.05],[131.05,-0.05],[172.55,-0.05],[171.8,2.7],[172.25,3.65],[173.6,2.9],[173.8,1.2],[174.45,-0.05],[180,-0.05],[180,51]]],[[[-124.05,46.3],[-124.75,48.6],[-126.55,49.4],[-128.35,50.7],[-131.05,51.95],[-132.75,53.3],[-132.8,54.7],[-134.85,56.3],[-136.6,58.25],[-162.5,54.05],[-162.95,54.3],[-168.05,52.7],[-170.65,52.05],[-173.8,51.5],[-176.85,51.2],[-180,51.1],[-180,0.25],[-92.45,0.25],[-92.45,2.35],[-91.15,2.05],[-89.7,0.05],[-80.1,0.05],[-80.1,0.8],[-78.9,1.2],[-78.6,2.3],[-77.65,2.9],[-77.25,5.8],[-78.15,7.5],[-80,7.5],[-80.85,7.2],[-81.75,8.15],[-83.1,8.35],[-83.65,9.05],[-85.6,9.9],[-85.75,11.1],[-87.95,13.2],[-88.5,13.2],[-91.8,14.25],[-93,15.3],[-97.75,15.95],[-100.85,17.2],[-101.85,17.9],[-103.45,18.35],[-104.95,19.3],[-105.65,20.4],[-105.2,21.5],[-106.9,23.85],[-109.45,23.25],[-112.05,24.85],[-112.4,26.2],[-114.45,27.2],[-114.05,28.45],[-115.65,29.75],[-117.45,33.3],[-118.5,34],[-120.5,34.45],[-121.9,36.35],[-122.5,37.85],[-123.7,38.9],[-124.35,40.5],[-124.05,41.4],[-124.55,42.8],[-124.15,43.7],[-124,46.2],[-124.05,46.3]]]]}},{"type":"Feature","properties":{"ar":"المحيط الهادئ","en":"Pacific Ocean"},"geometry":{"type":"MultiPolygon","coordinates":[[[[180,-60.55],[180,-16.95],[180,-16.15],[180,-0.05],[174.45,-0.05],[173.8,1.2],[173.6,2.9],[172.25,3.65],[171.8,2.7],[172.55,-0.05],[131.05,-0.05],[133.95,-0.75],[134.15,-2.2],[135.5,-3.35],[137.8,-1.5],[139.8,-2.35],[141.95,-2.95],[143.25,-1.4],[146.6,-2],[147.1,-1.95],[149.95,-2.5],[150.45,-2.5],[151.05,-2.7],[152.2,-3.4],[153.15,-4.3],[154.55,-5.05],[154.7,-5.3],[154.85,-5.5],[155.85,-6.4],[156.55,-6.6],[157.1,-7.05],[158.7,-7.6],[158.8,-7.65],[160.7,-8.35],[161.2,-9.1],[161.4,-9.35],[161.5,-9.5],[161.4,-10.2],[162.3,-10.75],[167.15,-9.9],[167.55,-14.3],[168.15,-15.45],[168.2,-15.95],[168.2,-16.1],[168.2,-16.35],[168.3,-16.7],[168.3,-16.8],[168.35,-17.55],[168.45,-17.8],[169.05,-18.65],[169.2,-18.95],[169.25,-19.4],[169.45,-19.6],[169.85,-20.25],[167.45,-22.65],[159.05,-29],[159.05,-29.9],[159.05,-31.6],[172,-34.05],[172.75,-34.45],[174.3,-35.25],[174.8,-36.3],[175.75,-36.75],[178.25,-37.55],[177.95,-39.15],[177.15,-39.2],[176,-41.2],[174.3,-41.75],[172.4,-43.85],[171.45,-44.15],[170.7,-45.7],[169.7,-46.55],[167.95,-46.35],[167.85,-46.7],[167.55,-47.25],[166.4,-48.15],[166.1,-50.55],[166.05,-50.85],[166.05,-60.55],[180,-60.55]]],[[[-68.1,-60.55],[-68.1,-55.65],[-69.1,-55],[-69.1,-54.9],[-71.45,-54.6],[-73.8,-53.1],[-73.9,-51.35],[-75.1,-50.7],[-74.35,-49.95],[-74.35,-48.6],[-75.65,-46.6],[-74.15,-45.75],[-74.6,-44.65],[-73.95,-41.1],[-73.25,-39.2],[-73.6,-37.2],[-71.65,-33.65],[-71.4,-32.4],[-71.65,-30.35],[-70.45,-25.15],[-70.55,-23.05],[-70.1,-21.5],[-70.35,-18.4],[-72.45,-16.7],[-75.1,-15.4],[-76.3,-14.15],[-76.2,-13.5],[-77.65,-11.3],[-78.75,-8.6],[-80.1,-6.65],[-80.8,-6.3],[-81.3,-4.3],[-80.8,-3.75],[-80.9,-1.1],[-80.1,0.05],[-89.7,0.05],[-91.15,2.05],[-92.45,2.35],[-92.45,0.25],[-180,0.25],[-180,-16.15],[-180,-16.5],[-180,-16.55],[-180,-16.8],[-180,-16.95],[-180,-60.55],[-68.1,-60.55]]]]}},{"type":"Feature","properties":{"ar":"المحيط الهندي","en":"Indian Ocean"},"geometry":{"type":"Polygon","coordinates":[[[166.05,-60.55],[166.05,-50.85],[165.9,-50.8],[146.8,-43.65],[146.35,-43.5],[146,-43.4],[118.05,-35.05],[118.05,-35],[116.5,-35],[115,-34.25],[114.95,-29.45],[114.15,-28.1],[113.4,-25.7],[113.7,-22.65],[116.7,-20.65],[117.4,-20.7],[119.1,-20],[120.9,-19.65],[122.25,-17.95],[122.95,-16.45],[124.4,-15.75],[125.2,-14.7],[126.9,-13.75],[122.9,-10.9],[121.35,-10.8],[120.65,-10.2],[119.05,-9.65],[118.4,-8.8],[117.05,-9.1],[112.7,-8.4],[108.75,-7.65],[106.65,-7.4],[105.3,-6.75],[104.6,-5.9],[102.55,-4.15],[100.85,-2.15],[100.3,-0.85],[99.15,0.35],[98.55,1.9],[97.7,2.35],[96.95,3.6],[95.5,4.75],[95.2,5.5],[81.85,7.25],[81.65,6.45],[80.2,6.05],[73.1,-0.7],[51.4,10.4],[49.35,7],[48,4.5],[46.05,2.45],[44.35,1.4],[42,-0.95],[41.4,-1.85],[40.2,-2.7],[38.8,-5.9],[39.45,-6.9],[39.3,-8.45],[39.8,-9.9],[40.6,-10.65],[44.65,-11.25],[48.9,-11.8],[49.25,-12.1],[49.95,-13.05],[50.5,-15.4],[49.85,-16.25],[49.5,-17.9],[47.9,-22.45],[47.2,-24.8],[45.1,-25.55],[32.9,-26.55],[32.55,-28.2],[31.35,-29.4],[30.3,-30.95],[27.85,-33.05],[24.85,-34.15],[23.6,-34],[19.65,-34.75],[19.6,-60.55],[166.05,-60.55]]]}},{"type":"Feature","properties":{"ar":"المحيط الأطلسي","en":"Atlantic Ocean"},"geometry":{"type":"Polygon","coordinates":[[[-45.95,-60.55],[-45.6,-60.55],[-44.85,-60.55],[19.6,-60.55],[19.65,-34.75],[17.9,-32.95],[18.2,-31.75],[16.5,-28.65],[15.35,-27.4],[14.5,-24.2],[14.55,-22.7],[12.45,-18.95],[11.8,-18],[11.75,-15.85],[12.55,-13.45],[13.4,-12.5],[13.85,-11.05],[13,-9.05],[13.4,-8.35],[11.65,-4.45],[9.25,-1.85],[8.7,-0.6],[6.55,0.05],[-49.4,0],[-45.1,-1.45],[-44.55,-1.95],[-42.25,-2.8],[-39.95,-2.85],[-38.5,-3.7],[-37.15,-4.9],[-35.55,-5.15],[-34.8,-7.3],[-35.35,-9.25],[-36.95,-10.8],[-38.25,-12.85],[-39.1,-13.6],[-38.9,-15.85],[-39.75,-18.65],[-39.7,-19.3],[-40.8,-20.9],[-41.1,-22.1],[-42.05,-22.95],[-44.65,-23.05],[-46.85,-24.25],[-48.55,-25.8],[-48.8,-28.6],[-49.75,-29.35],[-51.15,-31.5],[-52.35,-32.45],[-53.8,-34.4],[-54.9,-34.95],[-56.75,-36.35],[-57.55,-38.1],[-62.05,-39.45],[-62.4,-40.9],[-63.4,-41.15],[-64.15,-42.85],[-65.3,-43.65],[-65.65,-45],[-65.85,-47.15],[-65.8,-47.95],[-67.7,-49.25],[-68.4,-52.3],[-68,-53.55],[-65.35,-54.9],[-69.1,-54.9],[-69.1,-55],[-68.1,-55.65],[-68.1,-60.55],[-56.25,-60.55],[-45.95,-60.55]]]}},{"type":"Feature","properties":{"ar":"البحر الأسود","en":"Black Sea"},"geometry":{"type":"Polygon","coordinates":[[[36.6,45.4],[33.9,44.4],[33.65,45.95],[30.8,46.55],[29.6,45.7],[29.55,44.85],[27.5,42.45],[28.95,41.25],[31.25,41.1],[33.4,42],[36.05,41.7],[38.4,40.9],[40.25,40.95],[41.4,41.4],[41.5,42.65],[36.6,45.4]]]}},{"type":"Feature","properties":{"ar":"بحر الفلبين","en":"Philippine Sea"},"geometry":{"type":"Polygon","coordinates":[[[139.05,34.75],[136.9,34.8],[135.9,33.55],[135.15,33.9],[134.75,33.8],[132.5,32.9],[132,32.9],[131.35,31.4],[130.7,31],[130.7,29.8],[129.45,28.4],[129.3,28.2],[128.25,26.9],[127.65,26.1],[127,25.3],[125.3,24.1],[123.95,23.65],[123.1,23.95],[121.95,25],[120.85,22.1],[120.85,22.05],[120.8,21.95],[122.05,20.45],[122.2,18.5],[122.5,17.1],[121.4,15.3],[121.8,14.1],[122.85,14.25],[124.15,13.05],[125.55,12.2],[125.65,10.45],[126.05,10.05],[126.6,7.25],[125.4,5.6],[125.65,3.4],[126.7,4.05],[126.85,4.2],[128.55,2.6],[144.7,12.9],[145.9,14.6],[146.3,16.6],[146.2,18.85],[145.35,20.65],[142.4,21.25],[141.55,22.55],[141.55,23.85],[142.55,26.7],[142.45,27.6],[140.9,30],[139.8,33.9],[139.05,34.75]]]}},{"type":"Feature","properties":{"ar":"بحر تسمان","en":"Tasman Sea"},"geometry":{"type":"Polygon","coordinates":[[[167.55,-47.25],[167.85,-46.7],[167.95,-46.35],[166.75,-46.2],[167.2,-44.95],[171.25,-42.45],[172.65,-40.5],[173.25,-41.3],[175.05,-40.8],[175,-39.95],[173.95,-39.5],[174.95,-37.8],[174.45,-36.45],[172.75,-34.45],[172,-34.05],[159.05,-31.6],[159.05,-29.9],[153.3,-29.9],[152.45,-32.45],[151.8,-32.9],[150.2,-35.85],[149.95,-37.55],[147.95,-39.75],[148.3,-42.05],[146.35,-43.5],[146.8,-43.65],[165.9,-50.8],[166.1,-50.55],[166.4,-48.15],[167.55,-47.25]]]}},{"type":"Feature","properties":{"ar":"خليج البنغال","en":"Bay of Bengal"},"geometry":{"type":"Polygon","coordinates":[[[95.2,5.5],[95.25,5.55],[94.1,6.25],[93.05,7.7],[92.2,10.35],[92.55,13.25],[92.95,14.4],[94.25,16.25],[94.6,17.55],[94,19.45],[92.05,21.15],[91.4,22.8],[90.35,22.05],[89.05,21.65],[87.1,21.5],[86.3,19.9],[84.75,19.15],[84.1,18.3],[82.35,17.1],[82.25,16.55],[80.3,15.7],[80.05,15.05],[80.35,13.35],[79.85,12],[79.85,10.35],[81.35,8.45],[81.85,7.25],[95.2,5.5]]]}},{"type":"Feature","properties":{"ar":"بحر الصين الجنوبي","en":"South China Sea"},"geometry":{"type":"Polygon","coordinates":[[[120.8,21.95],[120.1,23.1],[117.45,23.75],[116.45,22.95],[114.65,22.75],[111.95,21.85],[110.2,21.05],[109.95,20.3],[110.95,19.9],[110.45,18.75],[109.5,18.2],[108.7,18.55],[106.5,17.9],[107.2,16.9],[108.8,15.4],[109.25,13.3],[109.2,11.7],[107.25,10.4],[106.55,9.65],[104.75,8.6],[102.35,6.15],[103.4,4.85],[103.45,2.95],[104.3,1.4],[104.45,1.2],[104.25,1.1],[103.35,1.15],[103.15,0.9],[103.05,0.85],[103,0.85],[102.95,0.75],[102.9,0.7],[103.5,0.5],[103.7,-0.9],[104.35,-1.05],[104.65,-2.4],[105.6,-2.5],[106.05,-3.2],[106.55,-3.05],[106.8,-2.6],[107.8,-2.55],[108.25,-2.85],[110.25,-2.9],[110,-1.4],[109.15,-0.45],[109.1,1.5],[109.65,2.05],[110.95,1.5],[111.75,2.85],[113.05,3.2],[114.3,4.6],[115.5,5.05],[116.75,7],[117.2,8.35],[119,10.35],[119.5,11.35],[119.9,12.15],[120.25,12.2],[120.75,12.85],[120.1,14.85],[120.6,18.5],[122.2,18.5],[122.05,20.45],[120.8,21.95]]]}},{"type":"Feature","properties":{"ar":"بحر العرب","en":"Arabian Sea"},"geometry":{"type":"Polygon","coordinates":[[[73.1,-0.7],[72.55,0.95],[72.35,4.65],[71.85,9.4],[71.4,12.4],[71.65,13],[74.35,14.55],[73.5,16.05],[72.65,19.85],[70.05,21.2],[69,22.4],[68.8,23.05],[67.3,24.2],[66.45,25.6],[64.65,25.2],[63.7,25.4],[61.4,25.1],[59.85,22.45],[57.8,19],[55.5,17.85],[55.05,17.05],[52.6,16.45],[52.2,15.65],[51.25,15.2],[51.25,11.85],[51.4,10.4],[73.1,-0.7]]]}},{"type":"Feature","properties":{"ar":"بحر بيوفورت","en":"Beaufort Sea"},"geometry":{"type":"Polygon","coordinates":[[[-156.4,71.4],[-151.95,70.45],[-149.25,70.5],[-141.4,69.65],[-133.15,69.45],[-128,70.55],[-125.8,71.95],[-123.8,73.75],[-124.7,74.35],[-122.5,76.35],[-156.4,71.4]]]}},{"type":"Feature","properties":{"ar":"البحر الكاريبي","en":"Caribbean Sea"},"geometry":{"type":"Polygon","coordinates":[[[-65.65,18.4],[-67.2,18.4],[-68.35,18.55],[-71.05,18.25],[-71.4,17.65],[-72.8,18.45],[-73.35,19.8],[-74.15,20.2],[-75.1,19.9],[-77.7,19.85],[-78.65,21.5],[-81.8,22.2],[-82.75,22.7],[-84.9,21.85],[-87,21.55],[-87.75,18.45],[-88.3,17.3],[-86.9,15.75],[-85.8,16],[-84.25,15.8],[-83.35,15.25],[-83.2,14.35],[-83.85,11.3],[-82.25,9.05],[-81.35,8.8],[-79.6,9.6],[-78.1,9.25],[-76.9,8.55],[-75.65,9.45],[-75.65,10.2],[-74.85,11.1],[-71.95,11.4],[-71.45,10.95],[-68.85,11.45],[-67.85,10.45],[-66.25,10.65],[-64.85,10.1],[-63.85,10.65],[-61,9.55],[-60.25,11.4],[-59.2,12.8],[-59.75,14.95],[-61.65,18.1],[-63.55,18.7],[-65.65,18.4]]]}},{"type":"Feature","properties":{"ar":"خليج المكسيك","en":"Gulf of Mexico"},"geometry":{"type":"Polygon","coordinates":[[[-84.9,21.85],[-83.05,23],[-83,24.2],[-81.8,24.1],[-80.4,24.45],[-80.35,25.4],[-81.35,25.85],[-82.85,27.85],[-82.65,28.9],[-83.7,29.95],[-85.35,29.9],[-86.25,30.5],[-89.2,30.35],[-90.1,29.2],[-93.7,29.75],[-97.15,28.15],[-97.55,26.95],[-97.15,26.05],[-97.65,24.4],[-97.85,22.6],[-97.2,20.8],[-90.35,21],[-88.15,21.6],[-87,21.55],[-84.9,21.85]]]}},{"type":"Feature","properties":{"ar":"بحر لبرادور","en":"Labrador Sea"},"geometry":{"type":"Polygon","coordinates":[[[-43.95,59.8],[-45.4,60.2],[-64.45,60.3],[-61.35,57],[-61.5,56.4],[-59.95,55.25],[-57.55,54.45],[-55.8,53.2],[-55.4,51.95],[-56.7,50.05],[-55.05,49.3],[-53.95,49.45],[-52.75,47.75],[-43.95,59.8]]]}},{"type":"Feature","properties":{"ar":"خليج هدسون","en":"Hudson Bay"},"geometry":{"type":"Polygon","coordinates":[[[-81,63.45],[-83.5,64.1],[-85.5,63.15],[-86.35,64.55],[-91.35,63.5],[-94.65,60.4],[-94.7,58.9],[-93.3,58.75],[-92.25,57],[-90.6,57.2],[-85.05,55.3],[-82.2,54.85],[-79.65,54.7],[-76.65,56.1],[-77.15,58],[-78.5,58.7],[-77.3,60.05],[-78.15,62.3],[-81,63.45]]]}},{"type":"Feature","properties":{"ar":"بحر قزوين","en":"Caspian Sea"},"geometry":{"type":"Polygon","coordinates":[[[52.85,41.2],[52.6,42.75],[51.85,42.9],[50.85,44.2],[51.4,45.35],[52.55,45.4],[52.9,46.95],[51.2,47.1],[47.5,45.6],[46.75,44.4],[47.45,43.05],[49.55,40.7],[48.95,37.9],[51.1,36.75],[54,36.95],[53.85,38.95],[52.75,40.4],[52.85,41.2]]]}},{"type":"Feature","properties":{"ar":"خليج بافن","en":"Baffin Bay"},"geometry":{"type":"Polygon","coordinates":[[[-66.75,75.95],[-72.45,77.45],[-78,77.95],[-78,76.75],[-80.3,74.6],[-77.25,73.5],[-74.3,71.85],[-71.45,71.45],[-67.3,69.95],[-54.8,69.9],[-55.6,71.55],[-54.75,72.9],[-57.2,74.15],[-66.75,75.95]]]}},{"type":"Feature","properties":{"ar":"خليج ألاسكا","en":"Gulf of Alaska"},"geometry":{"type":"Polygon","coordinates":[[[-136.6,58.25],[-140.2,59.75],[-143.8,60],[-145.9,60.5],[-149.45,60],[-151.95,59.3],[-153.35,58.9],[-156.45,57.1],[-158.8,56],[-163.35,54.85],[-163.4,54.8],[-163.1,54.65],[-162.95,54.3],[-162.5,54.05],[-136.6,58.25]]]}},{"type":"Feature","properties":{"ar":"البحر الأحمر","en":"Red Sea"},"geometry":{"type":"Polygon","coordinates":[[[43.5,12.7],[42.7,15.65],[42.7,16.75],[41.25,18.7],[40.75,19.75],[39.1,21.3],[39.1,22.4],[38.45,23.7],[37.55,24.3],[37.15,25.3],[35.2,28.05],[34.4,28],[33.95,26.65],[35.2,24.5],[35.7,22.95],[36.85,22.1],[37.45,18.8],[38.55,18.05],[39.3,15.9],[41.2,14.6],[43.3,12.45],[43.5,12.7]]]}},{"type":"Feature","properties":{"ar":"بحر أوخوتسك","en":"Sea of Okhotsk"},"geometry":{"type":"Polygon","coordinates":[[[157.15,51.15],[156.5,51.5],[155.55,55.35],[156.8,57.75],[155.15,59.2],[152.9,58.95],[149.65,59.75],[147.5,59.25],[143.2,59.35],[142.05,59],[138.1,56.5],[138.7,54.3],[143,54.15],[143.15,52.1],[144.25,49.3],[143.1,49.2],[142.05,45.9],[141.95,45.5],[143.75,44.15],[145.8,43.4],[147.05,43.8],[151.8,46.55],[153.55,47.85],[157.15,51.15]]]}},{"type":"Feature","properties":{"ar":"بحر ودل","en":"Weddell Sea"},"geometry":{"type":"Polygon","coordinates":[[[-61.05,-71.15],[-60.4,-73],[-61,-74.5],[-63.35,-75.45],[-71.8,-76.75],[-76.5,-79.35],[-75.25,-80.8],[-64.75,-81.5],[-61.6,-83.35],[-54,-82.2],[-43.65,-82.25],[-38.75,-80.9],[-25.25,-79.75],[-36.25,-78.75],[-34.1,-77.45],[-28.95,-76.35],[-24.25,-75.75],[-19.5,-75.55],[-15.6,-73.1],[-11.5,-72.4],[-11.95,-71.15],[-61.05,-71.15]],[[-49.15,-78.1],[-43.8,-78.3],[-43.55,-80.2],[-54.15,-80.85],[-49.15,-78.1]]]}},{"type":"Feature","properties":{"ar":"الخليج العربي","en":"Arabian Gulf"},"geometry":{"type":"Polygon","coordinates":[[[57.2,26.1],[56.35,27.2],[54.9,26.55],[53.7,26.75],[51.3,28.15],[50,30.2],[48,30],[48.9,27.65],[50,26.85],[50.05,26.1],[51.55,25.9],[51.3,24.35],[51.9,24],[53.9,24.1],[56.45,26.3],[57.2,26.1]]]}},{"type":"Feature","properties":{"ar":"البحر الأبيض المتوسط","en":"Mediterranean Sea"},"geometry":{"type":"Polygon","coordinates":[[[0.2,38.75],[-2.05,36.8],[-1.25,35.45],[1.25,36.5],[3.8,36.9],[5.2,36.7],[6.5,37.1],[7.9,36.85],[9.7,37.35],[10.55,36.9],[11.2,34.7],[10.85,33.7],[12.3,32.85],[13.3,32.9],[15.35,32.15],[20,32.05],[21.65,32.95],[23.3,32.2],[29.05,30.85],[31.2,31.6],[32.1,31.1],[33.65,31.15],[34.7,31.9],[36,34.55],[35.55,36.6],[34.6,36.8],[32.8,36.05],[31.35,36.8],[29.7,36.15],[29.05,36.7],[26.25,35.05],[24.8,34.95],[23.55,35.3],[22.45,36.45],[15.1,36.7],[12.45,37.75],[8.9,38.95],[8.2,40.65],[9.2,41.25],[9.2,41.4],[8.7,42.55],[9.4,43],[7.8,43.85],[5.4,43.25],[3.25,41.95],[4.15,40.05],[4.3,39.85],[1.6,38.65],[0.2,38.75]]]}},{"type":"Feature","properties":{"ar":"بحر روس","en":"Ross Sea"},"geometry":{"type":"MultiPolygon","coordinates":[[[[170.75,-71.95],[169.85,-73.55],[169.3,-77.45],[160.5,-79.2],[160.9,-81.4],[168.1,-83.35],[180,-84.35],[180,-71.95],[170.75,-71.95]]],[[[-180,-71.95],[-180,-84.35],[-162.95,-84.9],[-164.95,-83.8],[-153,-82.45],[-156.55,-81.15],[-148.1,-80.9],[-148.2,-79.8],[-155.2,-78.95],[-158.5,-77.8],[-158,-77.1],[-143.55,-75.55],[-137.6,-75.1],[-127.25,-73.3],[-124.9,-74.7],[-115.1,-74.45],[-114.6,-73.9],[-102.25,-72],[-102.15,-72],[-107.15,-71.95],[-180,-71.95]]]]}},{"type":"Feature","properties":{"ar":"بحر المرجان","en":"Coral Sea"},"geometry":{"type":"Polygon","coordinates":[[[169.45,-19.6],[169.25,-19.4],[169.2,-18.95],[169.05,-18.65],[168.45,-17.8],[168.35,-17.55],[168.3,-16.8],[168.3,-16.7],[168.2,-16.35],[168.2,-16.1],[168.2,-15.95],[168.15,-15.45],[167.55,-14.3],[167.15,-9.9],[162.3,-10.75],[162.1,-10.8],[160.5,-11.75],[160,-11.5],[153.75,-11.6],[153.3,-11.35],[151.3,-11],[150.6,-10.55],[147.75,-10.05],[146.65,-8.95],[143.35,-8.95],[143,-9.65],[142.8,-11.1],[143.4,-12.65],[143.75,-14.35],[145.3,-14.95],[145.45,-16.4],[146.15,-17.65],[146.5,-19.1],[148.75,-20.3],[149.7,-22.45],[150.75,-22.6],[150.85,-23.45],[151.85,-24.1],[152.9,-25.45],[152.9,-25.55],[153.6,-28.25],[153.3,-29.9],[159.05,-29.9],[159.05,-29],[167.45,-22.65],[169.85,-20.25],[169.45,-19.6]],[[153,-25.55],[153,-25.45],[153.3,-24.75],[153.3,-24.9],[153,-25.55]]]}},{"type":"Feature","properties":{"ar":"بحر اليابان","en":"Sea of Japan"},"geometry":{"type":"Polygon","coordinates":[[[130.9,34.3],[132.9,35.5],[135.15,35.75],[136.7,36.75],[138.3,37.2],[139.4,38.15],[140.05,39.45],[140.3,41.15],[139.9,42.65],[141.3,43.2],[141.95,45.5],[142.05,45.9],[141.85,48.75],[142.2,51.2],[140.95,51.6],[140.15,48.5],[137.7,45.8],[135.15,43.55],[133.15,42.7],[131.7,43.2],[129.75,41.7],[129.7,40.85],[128.3,40.05],[128.3,38.7],[129.35,37.25],[129.55,36.05],[130.9,34.3]]]}},{"type":"Feature","properties":{"ar":"بحر سيليبس","en":"Celebes Sea"},"geometry":{"type":"Polygon","coordinates":[[[125.4,5.6],[124.1,6.4],[124.2,7.4],[122.5,7.65],[122.05,6.9],[122.05,6.75],[121.95,6.4],[121.2,6.05],[120.9,5.95],[120.15,5.35],[119.8,5.1],[119.25,5.2],[117.15,3.6],[118.95,0.95],[120.9,1.25],[123.85,0.85],[125.15,1.65],[125.65,3.4],[125.4,5.6]]]}},{"type":"Feature","properties":{"ar":"بحر سولو","en":"Sulu Sea"},"geometry":{"type":"Polygon","coordinates":[[[120.25,12.2],[119.9,12.15],[119.5,11.35],[119.7,10.55],[117.2,8.35],[116.75,7],[119.25,5.2],[119.8,5.1],[120.15,5.35],[120.9,5.95],[121.2,6.05],[121.95,6.4],[122.05,6.75],[122.05,6.9],[122.15,7.8],[123.4,8.65],[122.55,9.5],[122.8,10.5],[122.1,11.65],[120.75,12.85],[120.25,12.2]]]}},{"type":"Feature","properties":{"ar":"بحر النرويج","en":"Norwegian Sea"},"geometry":{"type":"Polygon","coordinates":[[[-1.55,60.5],[-1.05,60.4],[5.2,60.6],[4.95,61.7],[8.45,63.75],[9.65,63.8],[12.15,65.2],[13.25,66.65],[13.55,68.25],[17.15,68.7],[18.3,69.45],[27.6,71.1],[17.05,76.6],[16.4,76.65],[-8,71.2],[-9.1,70.85],[-13.65,65.55],[-13.85,64.85],[-6.65,61.7],[-1.55,60.5]]]}},{"type":"Feature","properties":{"ar":"بحر جرينلاند","en":"Greenland Sea"},"geometry":{"type":"Polygon","coordinates":[[[-25.9,83.3],[-21.15,81.7],[-11.55,81.4],[-19.45,80.25],[-20.95,76.9],[-19.25,74.5],[-22.2,73.25],[-21.5,70.55],[-26.35,68.7],[-28.45,68.35],[-23.55,66.2],[-21.4,66.05],[-16.75,66.15],[-13.65,65.55],[-9.1,70.85],[-8,71.2],[16.4,76.65],[11.75,78.7],[17.6,79.85],[17.95,80.15],[-25.9,83.3]]]}},{"type":"Feature","properties":{"ar":"بحر باندا","en":"Banda Sea"},"geometry":{"type":"Polygon","coordinates":[[[123.35,-1],[121.7,-1.85],[122.85,-4.05],[120.45,-3.7],[120.4,-6.6],[121.1,-7.3],[122.8,-8.1],[127.25,-8.4],[127.8,-8.15],[130.75,-8.35],[131.15,-8],[131.7,-7.15],[132.9,-5.85],[133.1,-5.3],[130.75,-3.85],[129.85,-3.35],[128.4,-3.4],[128.2,-2.85],[126,-3.05],[126,-2.45],[125.9,-2],[125.9,-1.9],[125.4,-1.85],[125.3,-1.85],[124.35,-1.75],[123.5,-1.45],[123.55,-1.3],[123.35,-1]]]}},{"type":"Feature","properties":{"ar":"خليج غاسكونيا","en":"Bay of Biscay"},"geometry":{"type":"Polygon","coordinates":[[[-8,43.7],[-2.35,43.35],[-1.5,43.55],[-1.05,45.8],[-2,47.05],[-4.75,48.45],[-5.9,48.45],[-8,43.7]]]}},{"type":"Feature","properties":{"ar":"قناة موزمبيق","en":"Mozambique Channel"},"geometry":{"type":"Polygon","coordinates":[[[45.1,-25.55],[44.05,-25],[43.25,-22.05],[44.25,-20.4],[44.45,-19.45],[44,-17.4],[44.5,-16.2],[46.35,-15.7],[47.8,-14.55],[48.8,-13.25],[49.25,-12.1],[48.9,-11.8],[44.65,-11.25],[40.6,-10.65],[40.55,-15.45],[39.1,-16.95],[37.25,-17.75],[34.95,-19.8],[34.7,-20.4],[35.6,-22.95],[35.15,-24.55],[33.35,-25.25],[32.9,-26.55],[45.1,-25.55]]]}},{"type":"Feature","properties":{"ar":"خليج غينيا","en":"Gulf of Guinea"},"geometry":{"type":"Polygon","coordinates":[[[6.45,0.25],[6.55,0.05],[8.7,-0.6],[9.3,-0.35],[9.9,2.95],[8.7,3.2],[6.6,4.3],[0.95,5.8],[0.25,5.75],[-2,4.75],[-4.05,5.25],[-5.9,5],[-7.55,4.35],[6.45,0.25]]]}},{"type":"Feature","properties":{"ar":"بحر سكوتيا","en":"Scotia Sea"},"geometry":{"type":"Polygon","coordinates":[[[-55.05,-61.2],[-54.2,-61.25],[-54.7,-61.15],[-55.05,-61.2]]]}},{"type":"Feature","properties":{"ar":"بحر البلطيق","en":"Baltic Sea"},"geometry":{"type":"Polygon","coordinates":[[[22.95,59.8],[18.95,59.75],[16.65,58.45],[16,56.2],[14.35,55.55],[12.1,55.2],[12.45,54.4],[14.25,53.95],[18.3,54.85],[19.4,54.4],[21.15,55.65],[21.05,56.8],[23.5,59.05],[22.95,59.8]]]}},{"type":"Feature","properties":{"ar":"بحر بارنتس","en":"Barents Sea"},"geometry":{"type":"Polygon","coordinates":[[[63.7,81.6],[63.05,81.7],[59.35,81.85],[58,81.8],[49.85,80.9],[48.4,80.55],[48.4,80.65],[44.95,80.6],[27.05,80.1],[20.85,79.4],[17.95,80.15],[17.6,79.85],[24.25,77.9],[17.05,76.6],[27.6,71.1],[33.7,69.3],[39,68.3],[43.35,68.65],[45.9,68.5],[47.85,67.6],[52.55,68.6],[53.95,68.25],[60.65,69.1],[60.3,69.65],[60.25,69.7],[58.5,70.25],[57.6,70.75],[53.7,70.8],[51.8,71.5],[57.1,75.4],[68.9,76.75],[65.35,81],[65.15,81.15],[63.7,81.6]]]}},{"type":"Feature","properties":{"ar":"بحر الشمال","en":"North Sea"},"geometry":{"type":"Polygon","coordinates":[[[-3.05,58.65],[-1.8,57.5],[-2.65,56.3],[0.55,52.95],[1.65,52.75],[1.4,51.15],[1.7,50.9],[3.6,51.45],[4.9,53.25],[8.55,53.55],[8.95,54.55],[7.15,58.05],[5.15,59.25],[5.2,60.6],[-1.05,60.4],[-1.3,59.9],[-3.05,58.65]]]}},{"type":"Feature","properties":{"ar":"البحر الأيرلندي","en":"Irish Sea"},"geometry":{"type":"Polygon","coordinates":[[[-6.4,51.7],[-5.15,51.75],[-2.95,53.75],[-3.95,54.8],[-5.1,54.8],[-5.5,54.6],[-6.35,54],[-6.6,52.2],[-6.4,51.7]]]}},{"type":"Feature","properties":{"ar":"بحر جاوة","en":"Java Sea"},"geometry":{"type":"Polygon","coordinates":[[[105.3,-6.75],[106.05,-5.9],[108.3,-6.25],[108.7,-6.8],[110.45,-6.95],[110.75,-6.45],[112.55,-6.95],[112.8,-7.55],[114.4,-7.75],[115.2,-6.95],[117,-7.1],[118.8,-6.5],[119.35,-5.3],[116.2,-4],[114.7,-4.15],[113.55,-3.2],[112.3,-3.3],[110.25,-2.9],[108.25,-2.85],[107.8,-2.55],[106.8,-2.6],[106.55,-3.05],[106.05,-3.2],[105.8,-5.7],[104.6,-5.9],[105.3,-6.75]]]}},{"type":"Feature","properties":{"ar":"بحر أندامان","en":"Andaman Sea"},"geometry":{"type":"Polygon","coordinates":[[[95.25,5.55],[95.45,5.65],[98.3,7.8],[98.3,8.15],[98.3,8.2],[98.75,11.6],[98.6,13.15],[97.8,14.95],[94.25,16.25],[92.95,14.4],[92.55,13.25],[92.2,10.35],[93.05,7.7],[94.1,6.25],[95.25,5.55]]]}},{"type":"Feature","properties":{"ar":"البحر الأصفر","en":"Yellow Sea"},"geometry":{"type":"Polygon","coordinates":[[[126.55,34.3],[126.3,35.15],[126.85,37],[125.45,37.75],[125.35,39.55],[123.35,39.75],[121.15,38.75],[120.9,37.8],[121,36.6],[119.2,35],[120.2,34.35],[120.85,32.65],[121.8,31.95],[126.2,33.25],[126.35,33.45],[126.55,34.3]]]}},{"type":"Feature","properties":{"ar":"بحر الصين الشرقي","en":"East China Sea"},"geometry":{"type":"Polygon","coordinates":[[[127.65,26.1],[128.25,26.9],[129.3,28.2],[129.45,28.4],[130.7,29.8],[130.7,31],[129.65,33],[128.7,32.45],[126.6,33.25],[126.2,33.25],[121.8,31.95],[121.85,31.7],[121.85,30.95],[122,30],[121.6,28.35],[121.1,28.3],[119.25,25.25],[121.1,25.05],[121.95,25],[123.1,23.95],[123.95,23.65],[125.3,24.1],[127,25.3],[127.65,26.1]]]}},{"type":"Feature","properties":{"ar":"بحر تشوكشي","en":"Chukchi Sea"},"geometry":{"type":"MultiPolygon","coordinates":[[[[178.65,71],[175.6,69.9],[180,69],[180,71],[178.65,71]]],[[[-177.5,71.2],[-180,71],[-180,69],[-175.35,67.7],[-169.75,66.05],[-168.1,65.65],[-164.65,66.55],[-163.75,67.25],[-166.4,68.4],[-164.3,68.95],[-161.9,70.35],[-156.45,71.4],[-177.5,71.2]]]]}},{"type":"Feature","properties":{"ar":"خليج كامبيشي","en":"Bay of Campeche"},"geometry":{"type":"Polygon","coordinates":[[[-97.2,20.8],[-95.8,18.75],[-94.55,18.15],[-91.95,18.7],[-90.75,19.35],[-90.35,21],[-97.2,20.8]]]}},{"type":"Feature","properties":{"ar":"بحر آرافورا","en":"Arafura Sea"},"geometry":{"type":"Polygon","coordinates":[[[131.7,-7.15],[131.15,-8],[130.75,-8.35],[131.85,-11.25],[135.2,-12.2],[136.85,-12.25],[141.75,-12.25],[142.15,-10.95],[141.2,-9.25],[140,-8.15],[138.85,-8.15],[138.85,-6.85],[138.05,-5.45],[137.1,-4.9],[133.4,-3.75],[133.15,-5.35],[132.9,-5.85],[131.7,-7.15]]]}},{"type":"Feature","properties":{"ar":"بحر تيمور","en":"Timor Sea"},"geometry":{"type":"Polygon","coordinates":[[[126.9,-13.75],[129.8,-13.6],[130.65,-12.4],[132.35,-12.25],[131.85,-11.25],[130.75,-8.35],[127.8,-8.15],[127.25,-8.4],[125.4,-9.3],[124.45,-10.15],[122.9,-10.9],[126.9,-13.75]]]}},{"type":"Feature","properties":{"ar":"خليج تايلاند","en":"Gulf of Thailand"},"geometry":{"type":"Polygon","coordinates":[[[104.75,8.6],[105.05,10.05],[103.55,10.6],[102.75,12],[101.7,12.7],[100,12.15],[99.15,10.3],[100.3,8.25],[100.6,7.2],[102.35,6.15],[104.75,8.6]]]}},{"type":"Feature","properties":{"ar":"بحر لكديف","en":"Laccadive Sea"},"geometry":{"type":"Polygon","coordinates":[[[80.2,6.05],[79.8,7.3],[77.3,8.15],[76.55,8.9],[76.35,9.9],[75.2,12.05],[74.35,14.55],[71.65,13],[71.4,12.4],[71.85,9.4],[72.35,4.65],[72.55,0.95],[73.1,-0.7],[80.2,6.05]]]}},{"type":"Feature","properties":{"ar":"بحر بلنغهاوزن","en":"Bellingshausen Sea"},"geometry":{"type":"Polygon","coordinates":[[[-95.6,-72.2],[-95.55,-73.25],[-90.3,-73],[-86,-73.2],[-82.2,-73.85],[-80.45,-72.95],[-75.9,-73.35],[-75.3,-71.6],[-71.2,-71],[-71.85,-68.95],[-95.6,-72.2]]]}},{"type":"Feature","properties":{"ar":"بحر أموندسن","en":"Amundsen Sea"},"geometry":{"type":"Polygon","coordinates":[[[-114.6,-73.9],[-113.95,-75],[-106.6,-75.35],[-101.25,-74.5],[-102.7,-73.3],[-102.25,-72],[-114.6,-73.9]]]}},{"type":"Feature","properties":{"ar":"مضيق دافيس","en":"Davis Strait"},"geometry":{"type":"Polygon","coordinates":[[[-45.4,60.2],[-48.4,61],[-51.45,63.65],[-53.9,67.15],[-53.05,68.6],[-54.8,69.9],[-67.3,69.95],[-68.05,68.55],[-61.3,66.65],[-63.35,65.25],[-65.05,62.65],[-64.95,61.85],[-64.95,61.75],[-64.95,61.7],[-64.85,61.35],[-64.75,60.5],[-64.45,60.3],[-45.4,60.2]]]}},{"type":"Feature","properties":{"ar":"بحر كارا","en":"Kara Sea"},"geometry":{"type":"Polygon","coordinates":[[[91.4,81.2],[89.9,81.15],[65.35,81.05],[65.35,81],[68.9,76.75],[68.15,76.3],[61.35,75.3],[55.35,72.45],[57.6,70.75],[58.5,70.25],[60.25,69.7],[60.3,69.65],[67.05,69.7],[66.9,71.3],[69.65,72.9],[74.75,73.1],[77.65,72.3],[80.6,73.55],[86.6,73.9],[87.65,75.15],[96.9,75.95],[101.1,76.7],[99.3,78.05],[102.3,79.45],[99.7,79.45],[97.45,80.15],[97.25,80.25],[95.15,81.25],[91.4,81.2]]]}},{"type":"Feature","properties":{"ar":"بحر لابتيف","en":"Laptev Sea"},"geometry":{"type":"Polygon","coordinates":[[[96.2,81.2],[97.25,80.25],[97.45,80.15],[99.7,79.45],[102.3,79.45],[105.15,78.8],[105.8,77.55],[113.85,75.85],[113.4,73.65],[118.95,73.45],[127.75,73.5],[129.75,71.1],[131.15,70.75],[136.25,74],[138.85,76.25],[96.2,81.2]]]}},{"type":"Feature","properties":{"ar":"بحر بيرنغ","en":"Bering Sea"},"geometry":{"type":"MultiPolygon","coordinates":[[[[180,51],[180,62.65],[177.35,62.6],[172.85,61.45],[170,60.05],[166.95,60.3],[162.8,57.35],[163.3,56.2],[167.05,54.15],[170.35,52.85],[173.2,51.9],[178.2,51.05],[180,51]]],[[[-162.95,54.3],[-163.1,54.65],[-163.4,54.8],[-163.35,54.85],[-161.45,55.95],[-162.15,58.65],[-162.25,60.2],[-163.9,59.8],[-165.35,60.55],[-166.1,61.8],[-164.45,63.2],[-164.95,64.45],[-168.1,65.65],[-169.75,66.05],[-173.7,64.35],[-180,61.65],[-180,51.1],[-176.85,51.2],[-173.8,51.5],[-170.65,52.05],[-168.05,52.7],[-162.95,54.3]]]]}},{"type":"Feature","properties":{"ar":"بحر سارغاسو","en":"Sargasso Sea"},"geometry":{"type":"Polygon","coordinates":[[[-67.6,35.05],[-68.8,34.8],[-69.6,33.8],[-70.05,31.5],[-70.05,25.15],[-69.75,24.15],[-67.9,22.6],[-66.45,21.9],[-61.6,20.45],[-57.65,20.05],[-53.9,20.05],[-51.8,20.35],[-50.65,21.25],[-50.05,23.5],[-50.05,32.35],[-50.4,33.8],[-51.5,34.6],[-53.85,35.05],[-67.6,35.05]]]}},{"type":"Feature","properties":{"ar":"الخليج الأسترالي العظيم","en":"Great Australian Bight"},"geometry":{"type":"Polygon","coordinates":[[[146,-43.4],[145.25,-42.55],[144.7,-40.65],[143.85,-39.9],[143.55,-38.8],[140.65,-38.05],[139.05,-35.7],[136.6,-35.95],[135.65,-34.95],[134.25,-32.55],[131.15,-31.5],[128.95,-31.7],[127.3,-32.25],[125.9,-32.3],[124.15,-33.15],[123.65,-33.85],[119.85,-33.95],[118.05,-35],[118.05,-35.05],[146,-43.4]]]}},{"type":"Feature","properties":{"ar":"خليج عدن","en":"Gulf of Aden"},"geometry":{"type":"Polygon","coordinates":[[[51.25,15.2],[49.35,14.65],[45.05,12.8],[43.5,12.7],[43.3,12.45],[43.45,11.35],[44.4,10.45],[47.4,11.15],[48.9,11.25],[51.25,11.85],[51.25,15.2]]]}},{"type":"Feature","properties":{"ar":"خليج عمان","en":"Gulf of Oman"},"geometry":{"type":"Polygon","coordinates":[[[61.4,25.1],[57.8,25.65],[57.2,26.1],[56.45,26.3],[56.35,25],[57.2,23.9],[58.6,23.65],[59.85,22.45],[61.4,25.1]]]}},{"type":"Feature","properties":{"ar":"البحر التيراني","en":"Tyrrhenian Sea"},"geometry":{"type":"Polygon","coordinates":[[[12.45,37.75],[15.65,38.25],[15.7,38.25],[16.2,38.75],[15.7,40],[13.75,41.25],[12.65,41.45],[10.7,42.95],[9.4,43],[9.2,41.4],[9.2,41.25],[9.8,40.5],[9.55,39.15],[8.9,38.95],[12.45,37.75]]]}},{"type":"Feature","properties":{"ar":"البحر الأبيض","en":"White Sea"},"geometry":{"type":"Polygon","coordinates":[[[39,68.3],[40.95,67.7],[41.2,66.85],[38.4,66.05],[35.5,66.4],[34.4,65.4],[39.75,64.6],[39.8,65.6],[42.2,66.5],[44.1,66.25],[44.15,68.35],[43.35,68.65],[39,68.3]]]}},{"type":"Feature","properties":{"ar":"خليج جيمس","en":"James Bay"},"geometry":{"type":"Polygon","coordinates":[[[-82.2,54.85],[-82.25,52.95],[-79.85,51.15],[-78.5,52.25],[-79.65,54.7],[-82.2,54.85]]]}},{"type":"Feature","properties":{"ar":"خليج كاربنتاريا","en":"Gulf of Carpentaria"},"geometry":{"type":"Polygon","coordinates":[[[136.85,-12.25],[135.95,-13.3],[135.55,-15],[136.8,-15.9],[139,-16.9],[140.05,-17.7],[140.85,-17.4],[141.65,-15.05],[141.45,-13.8],[141.75,-12.25],[136.85,-12.25]]]}},{"type":"Feature","properties":{"ar":"خليج كاليفورنيا","en":"Gulf of California"},"geometry":{"type":"Polygon","coordinates":[[[-106.9,23.85],[-109.2,26.3],[-112.15,29],[-113.05,31.2],[-114.85,31.8],[-114.65,30.25],[-112.85,28.4],[-111.55,26.7],[-110.7,24.8],[-109.45,23.25],[-106.9,23.85]]]}},{"type":"Feature","properties":{"ar":"مضيق هدسون","en":"Hudson Strait"},"geometry":{"type":"Polygon","coordinates":[[[-78.15,62.3],[-73.65,62.45],[-71.4,61.15],[-69.4,60.85],[-68.2,60.5],[-67.85,60.4],[-64.9,60.3],[-64.75,60.5],[-64.85,61.35],[-64.95,61.7],[-64.95,61.75],[-64.95,61.85],[-65.05,62.65],[-66.25,61.85],[-71.25,63.05],[-73.45,64.4],[-76.7,64.25],[-78.15,64.6],[-81,63.45],[-78.15,62.3]]]}},{"type":"Feature","properties":{"ar":"بحر المانش","en":"English Channel"},"geometry":{"type":"Polygon","coordinates":[[[-5.9,48.45],[-4.75,48.45],[-3.25,48.85],[-1.45,48.65],[1.25,50],[1.7,50.9],[1.4,51.15],[0.2,50.75],[-3.4,50.65],[-5.65,50.1],[-5.7,50.1],[-6.55,49.75],[-5.9,48.45]]]}},{"type":"Feature","properties":{"ar":"خليج هندوراس","en":"Gulf of Honduras"},"geometry":{"type":"Polygon","coordinates":[[[-88.3,17.3],[-88.9,15.9],[-86.9,15.75],[-88.3,17.3]]]}},{"type":"Feature","properties":{"ar":"خليج بوثنيا","en":"Gulf of Bothnia"},"geometry":{"type":"Polygon","coordinates":[[[22.95,59.8],[22.95,59.85],[21.45,60.6],[21.1,62.6],[25.35,65.5],[21.55,65.4],[20.75,63.85],[17.9,62.85],[17.25,60.7],[18.95,59.75],[22.95,59.8]]]}},{"type":"Feature","properties":{"ar":"البحر الأدرياتيكي","en":"Adriatic Sea"},"geometry":{"type":"Polygon","coordinates":[[[20,39.75],[19.4,40.3],[19.6,41.8],[15.1,44.25],[14.85,45.1],[13.05,45.65],[12.4,44.2],[14,42.7],[16,41.45],[17.95,40.65],[18.35,39.8],[19.65,39.75],[19.95,39.75],[20,39.75]]]}},{"type":"Feature","properties":{"ar":"قناة برستل","en":"Bristol Channel"},"geometry":{"type":"Polygon","coordinates":[[[-5.7,50.1],[-5.65,50.1],[-4.2,51.2],[-5.15,51.75],[-6.4,51.7],[-5.7,50.1]]]}},{"type":"Feature","properties":{"ar":"بحر الهبرديس","en":"Sea of the Hebrides"},"geometry":{"type":"Polygon","coordinates":[[[-6.25,58.5],[-7.05,57.8],[-7.15,57.65],[-7.3,57.55],[-7.35,57.4],[-7.35,57.1],[-8.25,55.15],[-6.15,55.2],[-5.5,54.6],[-5.1,54.8],[-4.7,55.4],[-5.95,56.6],[-5,58.55],[-6.25,58.5]]]}},{"type":"Feature","properties":{"ar":"خليج فنلندا","en":"Gulf of Finland"},"geometry":{"type":"Polygon","coordinates":[[[23.5,59.05],[25.5,59.65],[27.9,59.4],[28.65,60.6],[22.95,59.85],[22.95,59.8],[23.5,59.05]]]}},{"type":"Feature","properties":{"ar":"خليج الأسد","en":"Gulf of Lion"},"geometry":{"type":"Polygon","coordinates":[[[5.4,43.25],[4.05,43.6],[3.05,42.9],[3.25,41.95],[5.4,43.25]]]}},{"type":"Feature","properties":{"ar":"مضيق فلوريدا","en":"Florida Strait"},"geometry":{"type":"Polygon","coordinates":[[[-78.45,24.65],[-78.15,25.2],[-78.8,26.55],[-78.95,26.65],[-80.05,26.6],[-80.35,25.4],[-80.4,24.45],[-81.8,24.1],[-83,24.2],[-83.05,23],[-80.65,23.1],[-78.45,24.65]]]}},{"type":"Feature","properties":{"ar":"خليج بلنتي","en":"Bay of Plenty"},"geometry":{"type":"Polygon","coordinates":[[[175.75,-36.75],[176.1,-37.65],[177.35,-38],[178.25,-37.55],[175.75,-36.75]]]}},{"type":"Feature","properties":{"ar":"الممر الشمالي الغربي","en":"Northwest Passage"},"geometry":{"type":"Polygon","coordinates":[[[-85.7,79.6],[-85.3,79.2],[-87,78.9],[-88.8,78.2],[-92.7,78.4],[-96.75,80.15],[-99,80.1],[-100.15,80],[-103.6,79.35],[-105.55,79.05],[-110.4,78.75],[-113.3,78.35],[-113.8,77.9],[-115.05,77.95],[-116.35,77.55],[-116.2,76.6],[-111.05,75.55],[-105.9,75.15],[-105.25,73.75],[-105.45,72.75],[-103.95,70.75],[-101.55,70.15],[-103.45,68.8],[-106.15,69.15],[-113.15,68.5],[-113.7,69.2],[-117.2,70.05],[-118.8,69.25],[-114.4,68.65],[-115.15,67.8],[-110.05,68],[-106.15,68.9],[-104.2,68.05],[-99.15,67.7],[-97.25,68.45],[-95.65,67.75],[-93.65,68.55],[-96.5,70.1],[-96.4,71.25],[-89.4,71.05],[-90.05,71.95],[-87.7,73.7],[-77.25,73.5],[-80.3,74.6],[-89.85,74.55],[-91.95,74.8],[-92.7,76.6],[-88.1,77.7],[-86.8,78.75],[-84.3,79],[-85.65,79.7],[-85.7,79.6]],[[-93.55,74.15],[-90.35,73.85],[-92.1,72.75],[-95.2,72.05],[-95.65,73.7],[-93.55,74.15]],[[-96.6,71.95],[-100.6,72.15],[-101.45,73.45],[-97.8,73.3],[-96.6,71.95]],[[-98.95,76.65],[-97.8,75.1],[-100.25,75],[-102.15,76.3],[-98.95,76.65]]]}},{"type":"Feature","properties":{"ar":"البحر الأيوني","en":"Ionian Sea"},"geometry":{"type":"Polygon","coordinates":[[[22.45,36.45],[21.15,37.9],[20,39.75],[19.95,39.75],[19.65,39.75],[18.35,39.8],[15.7,38.25],[15.65,38.25],[15.1,36.7],[22.45,36.45]]]}},{"type":"Feature","properties":{"ar":"خليج سانت لورنس","en":"Gulf of Saint Lawrence"},"geometry":{"type":"Polygon","coordinates":[[[-61.45,45.7],[-59.9,46.15],[-55.95,46.95],[-55.2,47.45],[-59.35,47.85],[-56.75,51.25],[-58.5,51.3],[-60.1,50.25],[-64.5,50.3],[-64.25,48.55],[-65.3,47.1],[-63.3,45.75],[-61.5,45.7],[-61.45,45.7]]]}},{"type":"Feature","properties":{"ar":"بحر مالوكا","en":"Molucca Sea"},"geometry":{"type":"Polygon","coordinates":[[[128.55,2.6],[126.85,4.2],[126.7,4.05],[125.65,3.4],[125.15,1.65],[124.45,0.45],[123.5,0.3],[123.35,-1],[123.55,-1.3],[123.5,-1.45],[124.35,-1.75],[125.3,-1.85],[125.4,-1.85],[126.3,-1.8],[127.4,-1.55],[128.05,-0.7],[127.4,1.25],[128.6,2.6],[128.55,2.6]]]}},{"type":"Feature","properties":{"ar":"بحر بيسمارك","en":"Bismarck Sea"},"geometry":{"type":"Polygon","coordinates":[[[150.45,-2.5],[149.95,-2.5],[147.1,-1.95],[146.6,-2],[143.25,-1.4],[141.95,-2.95],[144.5,-3.85],[145.75,-4.8],[145.85,-5.45],[147.45,-6],[148.4,-5.5],[150.95,-5.4],[151.55,-4.35],[152.4,-4.45],[152.7,-4.35],[152.2,-3.55],[151.05,-2.7],[150.45,-2.5]]]}},{"type":"Feature","properties":{"ar":"بحر سليمان","en":"Solomon Sea"},"geometry":{"type":"Polygon","coordinates":[[[161.5,-9.5],[161.4,-9.35],[161.2,-9.1],[160.7,-8.35],[158.8,-7.65],[158.7,-7.6],[157.1,-7.05],[156.55,-6.6],[155.85,-6.4],[154.85,-5.5],[154.7,-5.3],[154.55,-5.05],[153.15,-4.3],[152.7,-4.35],[152.4,-4.45],[151.25,-5.9],[149.65,-6.3],[148.4,-5.5],[147.45,-6],[147.2,-7.4],[148.15,-8.1],[148.6,-9.05],[150.6,-10.55],[151.3,-11],[153.3,-11.35],[153.75,-11.6],[160,-11.5],[160.5,-11.75],[162.1,-10.8],[161.4,-10.2],[161.5,-9.5]]]}},{"type":"Feature","properties":{"ar":"خليج تونكين","en":"Gulf of Tonkin"},"geometry":{"type":"Polygon","coordinates":[[[108.7,18.55],[108.7,19.35],[109.95,20.3],[109.95,21.5],[108.3,21.7],[107.4,21.3],[106,19.95],[105.6,18.95],[106.5,17.9],[108.7,18.55]]]}},{"type":"Feature","properties":{"ar":"خليج فندي","en":"Bay of Fundy"},"geometry":{"type":"Polygon","coordinates":[[[-66.2,44.15],[-64.9,45.65],[-67.2,44.7],[-66.2,44.15]]]}},{"type":"Feature","properties":{"ar":"ريو دي لا بلاتا","en":"Río de la Plata"},"geometry":{"type":"Polygon","coordinates":[[[-54.9,-34.95],[-57.15,-34.45],[-57.25,-36.15],[-56.75,-36.35],[-54.9,-34.95]]]}},{"type":"Feature","properties":{"ar":"مضيق ملقا","en":"Strait of Malacca"},"geometry":{"type":"Polygon","coordinates":[[[102.95,0.75],[103,0.85],[103.05,0.85],[103.15,0.9],[103.35,1.15],[103.5,1.35],[101.3,2.9],[100.7,3.95],[100.1,6.45],[99.05,7.9],[98.3,8.2],[98.3,8.15],[98.3,7.8],[95.45,5.65],[97.55,5.2],[98.3,4.1],[101.05,2.25],[102.9,0.7],[102.95,0.75]]]}},{"type":"Feature","properties":{"ar":"مضيق سنغافورة","en":"Singapore Strait"},"geometry":{"type":"Polygon","coordinates":[[[104.25,1.1],[104.45,1.2],[104.3,1.4],[103.5,1.35],[103.35,1.15],[104.25,1.1]]]}},{"type":"Feature","properties":{"ar":"مضيق ماكاسار","en":"Makassar Strait"},"geometry":{"type":"Polygon","coordinates":[[[118.95,0.95],[117.75,0.75],[117.55,-0.75],[116.55,-1.45],[116.2,-4],[119.35,-5.3],[119.6,-4.05],[118.8,-2.75],[119.3,-1.95],[119.8,0.25],[120.9,1.25],[118.95,0.95]]]}},{"type":"Feature","properties":{"ar":"بحر سيرام","en":"Ceram Sea"},"geometry":{"type":"Polygon","coordinates":[[[125.9,-2],[126,-2.45],[126,-3.05],[128.2,-2.85],[130.4,-3],[130.75,-3.85],[133.1,-5.3],[133.15,-5.35],[133.4,-3.75],[132.35,-2.95],[131.95,-1.55],[129.2,-1.2],[127.4,-1.55],[126.3,-1.8],[125.9,-1.9],[125.9,-2]]]}},{"type":"Feature","properties":{"ar":"بحر سيتو الداخلي","en":"Seto Inland Sea"},"geometry":{"type":"Polygon","coordinates":[[[132.5,32.9],[132.8,34],[134.1,34.35],[134.75,33.8],[135.15,33.9],[134.75,34.75],[130.95,34],[130.85,33.9],[132,32.9],[132.5,32.9]]]}},{"type":"Feature","properties":{"ar":"مضيق تايوان","en":"Taiwan Strait"},"geometry":{"type":"Polygon","coordinates":[[[120.1,23.1],[121.1,25.05],[119.25,25.25],[117.45,23.75],[120.1,23.1]]]}},{"type":"Feature","properties":{"ar":"كوك إنليت","en":"Tikahtnu Inlet"},"geometry":{"type":"Polygon","coordinates":[[[-151.95,59.3],[-151.75,60.75],[-154.1,59.35],[-153.35,58.9],[-151.95,59.3]]]}},{"type":"Feature","properties":{"ar":"خليج بريستول","en":"Bristol Bay"},"geometry":{"type":"Polygon","coordinates":[[[-161.45,55.95],[-157.6,57.6],[-160.35,59.05],[-162.15,58.65],[-161.45,55.95]]]}},{"type":"Feature","properties":{"ar":"خليج ميلفيل","en":"Melville Bay"},"geometry":{"type":"Polygon","coordinates":[[[-57.2,74.15],[-58.5,75.7],[-63.45,76.35],[-66.75,75.95],[-57.2,74.15]]]}},{"type":"Feature","properties":{"ar":"خليج ماين","en":"Gulf of Maine"},"geometry":{"type":"Polygon","coordinates":[[[-65.75,43.55],[-66.2,44.15],[-67.2,44.7],[-70.2,43.75],[-70.85,42.85],[-69.95,41.7],[-65.75,43.55]]]}},{"type":"Feature","properties":{"ar":"خليج تشيزبيك","en":"Chesapeake Bay"},"geometry":{"type":"Polygon","coordinates":[[[-75.95,37.15],[-75.65,37.95],[-76.25,37.9],[-76,36.9],[-75.95,37.15]]]}},{"type":"Feature","properties":{"ar":"مضيق جبل طارق","en":"Strait of Gibraltar"},"geometry":{"type":"Polygon","coordinates":[[[-5.75,36.05],[-5.95,36.2],[-6.05,36.2],[-5.75,36.05]]]}},{"type":"Feature","properties":{"ar":"خليج سان جورج","en":"San Jorge Gulf"},"geometry":{"type":"Polygon","coordinates":[[[-65.65,-45],[-66.95,-45.25],[-67.55,-46.35],[-65.85,-47.15],[-65.65,-45]]]}},{"type":"Feature","properties":{"ar":"البحر البلياري","en":"Balearic Sea"},"geometry":{"type":"Polygon","coordinates":[[[4.3,39.85],[4.15,40.05],[3.25,41.95],[1.05,41.05],[-0.35,39.5],[0.2,38.75],[1.6,38.65],[4.3,39.85]]]}},{"type":"Feature","properties":{"ar":"بحر إيجة","en":"Aegean Sea"},"geometry":{"type":"Polygon","coordinates":[[[26.2,40.1],[25.85,40.85],[24.4,40.9],[23.65,40.2],[23.25,38.65],[24.75,36.95],[26.45,36.6],[27.3,36.85],[26.7,38.2],[27,38.9],[26.2,40.1]]]}},{"type":"Feature","properties":{"ar":"خليج منار","en":"Gulf of Mannar"},"geometry":{"type":"Polygon","coordinates":[[[79.8,7.3],[79.95,8.9],[79,9.25],[77.3,8.15],[79.8,7.3]]]}},{"type":"Feature","properties":{"ar":"خليج شيليخوف","en":"Shelikhov Gulf"},"geometry":{"type":"Polygon","coordinates":[[[156.8,57.75],[158.2,58.05],[164,61.35],[163,61.8],[160.75,60.75],[159.1,61.9],[157.45,61.8],[154.3,59.85],[155.15,59.2],[156.8,57.75]]]}},{"type":"Feature","properties":{"ar":"بحر بوهاي","en":"Bohai Sea"},"geometry":{"type":"Polygon","coordinates":[[[121.15,38.75],[122.3,40.55],[121.15,40.9],[118.9,39.15],[119.45,37.1],[120.9,37.8],[121.15,38.75]]]}},{"type":"Feature","properties":{"ar":"خليج كوتش","en":"Gulf of Kutch"},"geometry":{"type":"Polygon","coordinates":[[[69,22.4],[70.2,22.55],[68.8,23.05],[69,22.4]]]}},{"type":"Feature","properties":{"ar":"خليج بنما","en":"Gulf of Panama"},"geometry":{"type":"Polygon","coordinates":[[[-78.15,7.5],[-78.1,8.4],[-79.1,9],[-80.45,8.1],[-80,7.5],[-78.15,7.5]]]}},{"type":"Feature","properties":{"ar":"خليج أموندسن","en":"Amundsen Gulf"},"geometry":{"type":"Polygon","coordinates":[[[-128,70.55],[-125.9,69.4],[-121.55,69.8],[-118.8,69.25],[-117.2,70.05],[-118.95,71.75],[-123.2,71.1],[-125.8,71.95],[-128,70.55]]]}},{"type":"Feature","properties":{"ar":"شعبة فيكونت ملفيل ساوند","en":"Viscount Melville Sound"},"geometry":{"type":"Polygon","coordinates":[[[-105.9,75.15],[-108.85,75.05],[-115.45,73.55],[-111.3,72.7],[-105.25,73.75],[-105.9,75.15]]]}},{"type":"Feature","properties":{"ar":"خليج أونجافا","en":"Ungava Bay"},"geometry":{"type":"Polygon","coordinates":[[[-67.85,60.4],[-68.2,60.5],[-69.4,60.85],[-69.4,59.35],[-67.55,58.2],[-65.6,59.1],[-64.9,60.3],[-67.85,60.4]]]}},{"type":"Feature","properties":{"ar":"مضيق كوريا","en":"Korea Strait"},"geometry":{"type":"Polygon","coordinates":[[[129.55,36.05],[129.2,35.2],[127.7,34.95],[126.55,34.3],[126.35,33.45],[126.6,33.25],[128.7,32.45],[129.65,33],[130.85,33.9],[130.95,34],[130.9,34.3],[129.55,36.05]]]}}]}